name,address,lat,lon,naics,owner_last,owner_firs,owner_midd
R & G CORNER STORE,681 N Dukeland St Baltimore MD 21216,39.295338999999998,-76.662898999999996,"445120",JEFFERSON,FRANCES,NULL
"LADY'S TOUCH TRANSPORTATION SVCS, LLC",2523 Ashton St Baltimore MD 21223 USA,39.280203000000000,-76.655664999999999,"488999",BRADLEY,LORI,STELLA
"WALLACE, NANCY M",3447 W Franklin St Baltimore MD 21229,39.292599000000003,-76.674723000000000,"812210",YELLEN,RUTH,JANET
KINGDOM LIFE CHURCH INC,3171 Phelps Ln Baltimore MD 21229,39.287430000000001,-76.670636999999999,"813110",LEE,ESTELLE,NULL
CASH USA,2111 W Pratt St Baltimore MD 21223,39.284835999999999,-76.650304000000006,"522320",THADEN,KELLEY,NULL
ART HANDELER,103 Harmison St Baltimore MD 21223,39.285891999999997,-76.649050000000003,"541990",ODOM,MATTHEW,ROGER
MCDONALDS,2519 W Franklin St Baltimore MD 21223,39.292999999999999,-76.656729999999996,"722513",PARENT,ANTHONY,AARON
RIGHT TURN OF MARYLAND LLC,1849 Frederick Ave Baltimore MD 21223,39.286825999999998,-76.646260999999996,"622210",GELIN,WILLIAM,JAMES
CHEAP STORAGE,229 N Franklintown Rd Baltimore MD 21223,39.291063000000001,-76.660221000000007,"812990",MEADE,KAREN,SAMANTHA
SHOE FASHION BALTIMORE,2421 Frederick Ave Baltimore MD 21223,39.282389999999999,-76.655287000000001,"448120",FARES,ROBERT,NULL
SRE' VIR',3563 St Joseph St Baltimore MD 21229,39.286135000000002,-76.677823000000004,"624310",MOYERS,HOWARD,NULL
"KJBC, INC.",2884 Edmondson Ave Baltimore MD 21223,39.294629999999998,-76.664630000000002,"999990",CHANG,GAIL,DEBRA
MATH DEPARTMENT,3192 Wilkens Ave Baltimore MD 21223,39.275103999999999,-76.668163000000007,"611699",JOHNSON,DAWNA,NULL
MARY SAMPLE DAY CARE,920 N Bentalou St Baltimore MD 21216 USA,39.299106000000002,-76.653729999999996,"624410",CAMPOS,RAMON,NULL
PRICE BUSTERS,2415 W Franklin St Baltimore MD 21223 USA,39.292802000000002,-76.655310000000000,"442110",MALONEY,SAMMIE,NULL
PARAGO GROUP,3545 St Joseph St Baltimore MD 21229,39.286085999999997,-76.677584999999993,"561499",GARRETT,JOHN,TYRELL
JEMELLA LIQUORS & CUT RATE,1825 W Mosher St Baltimore MD 21217 USA,39.299663000000002,-76.647260000000003,"445310",CARROLL,TOM,JEREMIAH
"VARIEGATE GROUP, LLC",2429 W Lanvale St Baltimore MD 21216,39.296742000000002,-76.656195999999994,"541990",HASLER,CHARLES,NULL
MOMENTZ OF PLEASURE,2939 Mosher St Baltimore MD 21216,39.298971999999999,-76.666748999999996,"999990",MCGUIRK,JANE,TINA
GLOBAL TONER INK & SUPPLIES INC.,1044 S Monroe St Baltimore MD 21230,39.275877000000001,-76.644113000000004,"325910",KNAPP,CINDY,MARY
LEARN RITE DRIVING SCHOOL LLC,3728 Old Frederick Rd Baltimore MD 21229 USA,39.283914000000003,-76.678657000000001,"611692",PITTMAN,SAMMY,NULL
STEUART HILL ELEMENTARY SCHOOL,1605 McHenry St Baltimore MD 21223,39.284242999999996,-76.642336999999998,"611110",REED,CRAIG,NULL
EDNA COX TRANQUIL PATHWAY HOUSE,3709 Colborne Rd Baltimore MD 21229 USA,39.297778999999998,-76.679271000000000,"623990",LOUD,SHARON,ANNA
CHURCH OF THE HOLY TRINITY,849 N Bentalou St Baltimore MD 21216 USA,39.298335999999999,-76.653176000000002,"813110",MARTINEZ,LILIA,NULL
JERMAINE,344 Denison St Baltimore MD 21229,39.291094000000001,-76.674740000000000,"561990",HANSON,STEPHEN,JAMAR
STAR CHILD CARE,771 N Grantley St Baltimore MD 21229,39.296824000000001,-76.675618999999998,"624410",SCHLAG,IVAN,NULL
TASTY FOOD MART,509 S Catherine St Baltimore MD 21223,39.280251999999997,-76.653595999999993,"445110",HALDEMAN,KENNETH,THOMAS
TRUSTED INK TATTOO SHOP,480 Wellesley St Baltimore MD 21229,39.279451000000002,-76.668380999999997,"453998",JOHNSON,JAMES,NULL
KINGDOM FIRST MINISTRIES,86 S Kossuth St Baltimore MD 21229,39.285901000000003,-76.676546999999999,"813110",NAVEJAR,ELVIN,DANIEL
QUICK RESPONSE TOWING INC,525 S Caton Ave Baltimore MD 21229,39.278469000000001,-76.671367000000004,"488410",MILES,HELEN,ANNIE
ROZ FLEA MARKET,2712 Edmondson Ave Baltimore MD 21223,39.294741999999999,-76.661841999999993,"561990",SHAW,DONALD,HAROLD
HOPE IS ON YOUR WAY AB INC,555 S Bentalou St Baltimore MD 21223,39.280721999999997,-76.651934999999995,"999990",VAUGHT,WILLIAM,TIMOTHY
EMBRACING THOUGHTS,2015 McHenry St Baltimore MD 21223,39.284022000000000,-76.648623999999998,"541618",BRATTON,KRISTINA,NANCY
HEAVENLY FLOWERS,920 N Bentalou St Baltimore MD 21216 USA,39.299106000000002,-76.653729999999996,"453110",DEERING,JACQUELIN,NULL
LAWRENCE O OSEFOH,3341 W Baltimore St Baltimore MD 21229,39.285532000000003,-76.672625999999994,"541211",DEVLIN,WILLIAM,NULL
NAIL STUDIO,2421 Frederick Ave Baltimore MD 21223,39.282389999999999,-76.655287000000001,"812113",JASPER,SENA,NULL
EQUITY MANAGEMENT II LLC,219 S Mount St Baltimore MD 21223,39.285133999999999,-76.643448000000006,"561110",SPARKS,LUCIENNE,LONNIE
NEW CARMEL STAR BAPTIST CHURCH,1871 W Baltimore St Baltimore MD 21223,39.287975000000003,-76.646535000000000,"813110",MILLER,BRIAN,NULL
"ADVANCED SYSTEMS ENGINEERING TECHNOLOGY SERVICES GROUP, LLC",2548 Calverton Heights Ave Baltimore MD 21216,39.297801999999997,-76.657229000000001,"541511",KHAN,SALLY,BETTYE
R&R DISCOUNTS USED FURNITURE,154 Harmison St Baltimore MD 21223,39.285282000000002,-76.649321999999998,"442110",RODRIGUEZ,MIGUEL,STEPHEN
LOTTERY CONTROL BOARD,1000 S Monroe St Baltimore MD 21230,39.276094000000001,-76.644609000000003,"921130",JULIAN,ROBERT,NULL
THE DANIEL SANCTUARY INC,2959 W Mosher St Baltimore MD 21216,39.298980000000000,-76.666185999999996,"561990",NUTTING,MARTIN,NULL
"MAGNET ENTERTAINMENT, LLC",1235 N Franklintown Rd Baltimore MD 21216,39.299838000000001,-76.670070999999993,"711510",BULLOCK,JASON,STEVEN
BUSINESS MIND,505 N Warwick Ave Baltimore MD 21223,39.293604999999999,-76.656114000000002,"561499",SMITH,MELISSA,NULL
YRNEH LLC,407 Font Hill Ave Baltimore MD 21223,39.279440999999998,-76.662930000000003,"531210",HOUSEHOLDER,DAVID,TIMMY
UNIVERSITY OF MARYLAND,3192 Wilkens Ave Baltimore MD 21223,39.275103999999999,-76.668163000000007,"519120",CASSADAY,SARAH,NULL
REAL ESTATE HUNTER,612 S Monroe St Baltimore MD 21223,39.280692000000002,-76.646707000000006,"531210",LOOMIS,EMILY,NULL
FAS JR'S AUTO SERVICE,2368 Wilkens Ave Baltimore MD 21223,39.280110000000001,-76.653103999999999,"811118",JORDAN,ARLENE,NULL
C S HYDRAMATIC SERVICE,2040 Frederick Ave Baltimore MD 21223,39.286102999999997,-76.649462000000000,"541990",CONEY,DAVID,NULL
MCDONALDS,3270 Stafford St Baltimore MD 21229,39.280106000000004,-76.671107000000006,"722513",HENDRICKSON,RALPH,JACK
RENOVATION PLANNING AND PREPAR,3875 W Franklin St Baltimore MD 21229,39.292434999999998,-76.680306000000002,"236118",CHAVEZ,PAUL,NULL
SMILE INDO AMERICAN FOOD LLC,910 Poplar Grove St Baltimore MD 21216,39.298346000000002,-76.665391999999997,"445110",BECK,TAMA,NULL
"VICTORIOUS BUILDING, CONCRETE, WATERPROOFING AND RESTORATION",3087 Arunah Ave Baltimore MD 21216,39.294899999999998,-76.668430000000001,"236118",SLOAN,VINCENZO,JOHN
LOWMAN TRUCKING,910 Wilmington Ave Baltimore MD 21223,39.274932000000000,-76.667030999999994,"484110",SLAUGH,MITCHELL,NULL
COOPER PROPERTY MANAGEMENT LLC,932 McKean Ave Baltimore MD 21217,39.299115000000000,-76.646910000000005,"561110",FONTES,MICHAEL,NULL
CATON CONVENIENCE STORE,38 N Monastery Ave Baltimore MD 21229,39.287855000000000,-76.677040000000005,"445110",ELLSWORTH,THOMAS,NULL
ACADEMY OF SUCCESS RECOVERY COMMUNITY CENTER,180 S Franklintown Rd Baltimore MD 21223,39.285010999999997,-76.658602000000002,"624190",LAMPE,FREDDIE,NULL
PRINT ON INC,2225 W Baltimore St Baltimore MD 21223,39.287775000000003,-76.652056000000002,"443142",LEGORE,LEON,CARLTON
"WHITLOCK'S WINDOW TINTING, LLC",2771 Wilkens Ave Baltimore MD 21223,39.276155000000003,-76.660467999999995,"999990",MAGEE,SARAH,NULL
BB&E CONTRACTORS LLC,284 N Mount St Baltimore MD 21223,39.291873000000002,-76.644157000000007,"238990",FRAIN,TYRONE,NULL
"N & N TOWING, AUTOMOTIVE SERVICES, INC.",3235 Lohrs Ln Baltimore MD 21229,39.284678000000000,-76.671334999999999,"488410",CHRISTMAN,LINDA,MORGAN
"CJD INVESTMENTS, LLC",1549 W Lombard St Baltimore MD 21223,39.286211000000002,-76.641819999999996,"523910",LANE,JUDITH,CLARA
TREBOR RECORDS INC.,3662 W Saratoga St Baltimore MD 21229,39.291100000000000,-76.677704000000006,"443142",KEY,ALEJANDRO,ED
DENNEEN'S BEAUTY SALON,3428 W Saratoga St Baltimore MD 21229,39.290342000000003,-76.674092000000002,"812112",QUINONES,LUCIA,NULL
CAROLYNBLAKENEY.COM,256 N Monastery Ave Baltimore MD 21229,39.289817999999997,-76.674374999999998,"999990",BUZZELL,JOSEPHINE,MARITA
BCLASSIE SPECIAL EVENTS,2158 W Fayette St Baltimore MD 21223,39.289490000000001,-76.650988999999996,"541410",ROWLAND,JOHN,JAMES
AGBAJE LAW FIRM PC,2132 Frederick Ave Baltimore MD 21223,39.285741999999999,-76.651280999999997,"541110",CASTILLO,LYNNETTE,NAOMI
FLOYD S AUTO,649 S Smallwood St Baltimore MD 21223,39.279764999999998,-76.649491999999995,"811111",WETZEL,RUTH,MARGARET
THE 'A CLEAN,1957 W Saratoga St Baltimore MD 21223,39.291792999999998,-76.648116999999999,"561790",CHAGNON,PATRICIA,NULL
ST JOSEPH'S PASSIONIST MONASTERY CATHOLIC CHURCH,3549 Old Frederick Rd Baltimore MD 21229 USA,39.282786999999999,-76.676837000000006,"813110",LEO,COREEN,TAMMY
AUTOMATIC MUSIC MACHINES,211 S Pulaski St Baltimore MD 21223,39.284835000000001,-76.649687999999998,"713990",STONE,ELEANOR,GRACE
URBAN FLOORING OUTLET,2113 W Pratt St Baltimore MD 21223,39.284832999999999,-76.650358999999995,"442210",GUTIERREZ,MARCO,NULL
ORNAMENTAL IRON & FAB MET PDTS,2675 Hafer St Baltimore MD 21223,39.282511000000000,-76.659059999999997,"238990",EDMONDS,MICHELLE,NULL
TRINITY HAIR BOUTIQUE,1919 Christian St Baltimore MD 21223,39.282561000000001,-76.646856999999997,"448120",LIPSCOMB,LESLIE,LEON
AJD CLEANING SERVICE,755 Denison St Baltimore MD 21229,39.295800000000000,-76.673439000000002,"561790",BIELAK,FLOY,NULL
THE TAX OUTLET,2049 W Pratt St Baltimore MD 21223,39.284841999999998,-76.649420000000006,"541213",BLYTHE,EDWARD,NULL
JOHNS HOPKINS FAMILY CENTER,724 Edgewood St Baltimore MD 21229,39.295859000000000,-76.675044999999997,"561499",SPARKS,EDWARD,HENRY
MCI GEN ADMIN PATUXENT IN,311 N Calverton Rd Baltimore MD 21223,39.292704000000001,-76.660185999999996,"517911",JOHNSON,NICOLE,NULL
SUBWAY,2343 Frederick Ave Baltimore MD 21223,39.284218000000003,-76.653295000000000,"722513",HOWIE,ROY,RONALD
EMPOWERED CLEANING COMPANY LLC,3131 W Lexington St Baltimore MD 21229,39.288449999999997,-76.673917000000003,"561720",ENSOR,DAVID,ANTONIO
ALICIA PRYOR,375 Denison St Baltimore MD 21229,39.291519999999998,-76.674355000000006,"561990",CHOI,DORIS,LIZBETH
BALTIMORE JANITORIAL SUPPLY COMPANY,409 S Caton Ave Baltimore MD 21229,39.279463999999997,-76.671296999999996,"453998",MONTELONGO,BRIAN,MICHAEL
TONY JEROME SMITH,2530 Calverton Heights Ave Baltimore MD 21216,39.297812999999998,-76.656963000000005,"999990",RAMIREZ,VANESSA,SAGE
SGY TRANSPORTATION LLC,728 Allendale St Baltimore MD 21229,39.296056999999998,-76.678731999999997,"488999",ABNEY,JOSHUA,LOUIS
INVESTMENTS PLUS,480 Wellesley St Baltimore MD 21229,39.279451000000002,-76.668380999999997,"999990",RYLEE,JAYSON,NULL
TOWING,2259 Wilkens Ave Baltimore MD 21223,39.280289000000003,-76.651267000000004,"488410",BOWENS,RICHARD,NULL
"AHNS FOOD CO., INC.",2251 Edmondson Ave Baltimore MD 21223,39.294637000000002,-76.652548999999993,"445110",HAUSS,PETER,NULL
CONVENIENT LAUNDRY SERVICES,2207 Ramsay St Baltimore MD 21223,39.282806000000001,-76.651404999999997,"812310",DOWNING,ALEXANDER,EDWARD
THOMAS STEFPHON ENTERPRISES,2359 Lauretta Ave Baltimore MD 21223,39.293959000000001,-76.654112999999995,"561499",DOMKE,HEATHER,HEATHER
FRANKLIN SQUARE SCHOOL,242 N Mount St Baltimore MD 21223,39.291249999999998,-76.644158000000004,"531110",BROUGHTON,CAREY,NULL
NORRIS A DICKERSON REV,222 N Monastery Ave Baltimore MD 21229,39.289552000000000,-76.674700999999999,"561990",COLE,ALYSE,MARLENE
A1 AUTO GLASS & TINTING,3170 Stafford St Baltimore MD 21229,39.279780000000002,-76.669430000000006,"811122",SCHAEFER,DUANE,NULL
CEE PRODUCTIONS LLC,3540 W Lexington St Baltimore MD 21229,39.290675999999998,-76.677032999999994,"512120",HENDERSON,DEWEY,LAWRENCE
BAY ISLAND SEAFOOD CARRYOUT,1905 Dover St Baltimore MD 21223,39.284590000000001,-76.646872000000002,"445220",KHAN,MARCUS,NULL
J M BUSINESS ASOCIATES INC,2835 Edmondson Ave Baltimore MD 21223,39.294088000000002,-76.663843000000000,"999990",ESPARZA,ALYSHA,GRETA
MONTGOMERY PARK,1000 S Monroe St Baltimore MD 21230,39.276094000000001,-76.644609000000003,"236220",SANTOYO,CHARLES,NULL
A BETTER LASER CARTRIDGE,211 S Pulaski St Baltimore MD 21223,39.284835000000001,-76.649687999999998,"424120",HUSSAIN,STEVEN,HARRY
MARTINIS CRAB HOUSE,1836 W Pratt St Baltimore MD 21223 USA,39.285331999999997,-76.646281000000002,"722410",WILSON,ERIC,NULL
LOVE TO LIFE CHURCH MINISTRY,128 S Fulton Ave Baltimore MD 21223,39.285939999999997,-76.645335000000003,"813110",MILLER,ELIZABETH,ANNA
LEE'S LOVE NEST,2884 Edmondson Ave Baltimore MD 21223,39.294629999999998,-76.664630000000002,"722410",FRANCOIS,FLOSSIE,ELIZABETH
CATAPULT CONSTRUCTION LLC,3145 Phelps Ln Baltimore MD 21229,39.287709000000000,-76.670331000000004,"236115",BUSH,JASON,NULL
T & D COMMERCIAL CLEANING LLP,2555 W Lafayette Ave Baltimore MD 21216,39.298130000000000,-76.658366000000001,"561790",JIMENEZ,PATRICK,NULL
CAREFREE KITCHENS,2901 Strickland St Baltimore MD 21223,39.276769000000002,-76.664794999999998,"337110",TIDWELL,JOHN,NULL
WESTSIDE YOUTH OPPORTUNITY CTR,962 N Parrish St Baltimore MD 21217,39.299596999999999,-76.642413000000005,"624110",CROSON,MARY,NULL
X-CEL ENTERTAINMENT,3606 Frederick Ave Baltimore MD 21229,39.282055999999997,-76.676433000000003,"711510",RODRIGUES,YESENIA,ANITA
SAINT BENEDICTS HEAD START,2613 Wilkens Ave Baltimore MD 21223 USA,39.278609000000003,-76.656306999999998,"624410",LEBARRON,NANCY,NULL
YVONNE'S MALL,321 N Culver St Baltimore MD 21229,39.289451000000000,-76.673204999999996,"999990",NIEVES,AMBER,SIMONNE
STUDIO MONTICELLO,2316 W Lanvale St Baltimore MD 21216,39.297215000000001,-76.653613000000007,"999990",LEWIS,JEREMY,NULL
LIGHT OF LIFE,344 N Hilton St Baltimore MD 21229,39.291696999999999,-76.672915000000003,"999990",MOFFITT,ANDREA,NULL
TERRIS LITTLE ANGELS DAYCARE,3310 W Franklin St Baltimore MD 21229,39.292965000000002,-76.673310000000001,"624410",WALLACE,CASEY,PENNY
LA BON BOUTIQUE L.L.C.,2000 W Baltimore St Baltimore MD 21223,39.288570999999997,-76.649209999999997,"448120",TROTTER,CHERYL,NULL
GOMEZ CITY GROCERY LLC,2149 W Lexington St Baltimore MD 21223 USA,39.290250000000000,-76.651449000000000,"445110",RAINES,KIMBERLY,NULL
"REGIS TITLE & ABSTRACT CO., LLC",2778 W Mosher St Baltimore MD 21216,39.299517000000002,-76.662253000000007,"446120",SANTY,DUSTIN,NULL
ANGEL'S TOUCH CHILDCARE,265 Edgewood St Baltimore MD 21229,39.290604000000002,-76.675433999999996,"624410",LITHGOW,RICHARD,ALAN
"STEWART, TYRONE",2815 W Lafayette Ave Baltimore MD 21216,39.297888999999998,-76.663171000000006,"811310",BAKER,NANCY,NULL
JOHN G HETZELL & SON,108 Harmison St Baltimore MD 21223,39.285600000000002,-76.649280000000005,"332322",HOANG,HEIDI,NULL
CAPITOL CARBONIC CORPORATION,432 S Caton Ave Baltimore MD 21229,39.279384000000000,-76.671948000000000,"424690",CHACON,DANIEL,DONALD
CHURCH OF GOD CHRIST INC,86 S Morley St Baltimore MD 21229,39.285437999999999,-76.675714999999997,"813110",MITCHELL,WILLIAM,NULL
FORTIS SYSTEMS SOLUTION,2476 Arunah Ave Baltimore MD 21216,39.295693000000000,-76.656041000000002,"561499",MEEHAN,MARSHALL,NULL
S&A1 ENTERPRISES LLC,2317 Arunah Ave Baltimore MD 21216 USA,39.295394999999999,-76.654134999999997,"484110",WEATHERBY,REMA,JOLINE
NEW DUFFY'S RESTAURANT,3446 Frederick Ave Baltimore MD 21229,39.281556000000002,-76.674757000000000,"722511",MIRANDA,WESLEY,MAX
XL HEALTH INC,1000 S Monroe St Baltimore MD 21230,39.276094000000001,-76.644609000000003,"621610",PLEAS,JENNIFER,LOUISE
SHINING PATH MINISTRIES,662 N Payson St Baltimore MD 21217,39.295839999999998,-76.649292000000003,"813110",MORALES,JOSHUA,JAMES
ADL DREAM MANAGEMENT,2016 Penrose Ave Baltimore MD 21223,39.291302000000002,-76.649062999999998,"531210",RICHARDS,MAE,NULL
ARAY OF LIGHT ASSISTED LIVING,3086 Harlem Ave Baltimore MD 21216,39.295876000000000,-76.668218999999993,"623110",JONES,ANN,LISA
"LINEAR, RAYMOND",136 Edgewood St Baltimore MD 21229 USA,39.289977000000000,-76.676760999999999,"541921",STAFF,DARA,NULL
GUY D ALEXANDER DDS,3502 W Caton Ave Baltimore MD 21229 USA,39.287460000000003,-76.674890000000005,"621210",BORTHWICK,SYDNEY,RAYMOND
BILL WILD KITCHEN,11 N Gorman Ave Baltimore MD 21223,39.288020000000003,-76.653452000000001,"722511",MATTHEWS,CONRAD,RYAN
"BRUNCHIES, LLC",3201-3235 MD-144 Baltimore MD 21229,39.280456000000001,-76.670001999999997,"722511",SCHRADER,CHRISTINE,NULL
BAC T/A CHEF'S TASTE,1749 Cole St Baltimore MD 21223,39.281962000000000,-76.644112000000007,"311340",GOPAL,MICHELE,NULL
S SUWANICH MD,413 S Vincent St Baltimore MD 21223,39.283116999999997,-76.642719000000000,"621111",RODDENBERRY,ALBERT,FRANK
OASIS SNACKS AND LIQUOR,826 N Payson St Baltimore MD 21217,39.297811000000003,-76.649398000000005,"445310",ATWELL,WILLIAM,NULL
LOCKERMN-BUNDY ELEMENTARY SCHOOL,N Brice St Baltimore MD 21223,39.292082000000001,-76.649512999999999,"611110",KUNZE,JOSEPH,MARK
POLICE DEPT- SOUTHWESTERN DIST,470 Hurley Ave Baltimore MD 21223,39.278548000000001,-76.664451000000000,"922120",WARE,MICHAEL,JONAH
THE CENTRAL BAPTIST CHURCH OF BALTIMORE CITY,2031 W Baltimore St Baltimore MD 21223,39.287891999999999,-76.649102999999997,"813110",WASHINGTON,LORENZA,DEMETRIUS
E NEAL MDSON SCHLRSHIP PRGRAM,785 N Grantley St Baltimore MD 21229,39.297167999999999,-76.675246000000001,"561990",SEAL,FRANCISCO,DOUGLAS
LITTLE TAVERN,110 N Gilmor St Baltimore MD 21223,39.289805999999999,-76.642600000000002,"722410",MCPHETRIDGE,LUPE,NULL
WESTSIDE DELI,2421 Frederick Ave Baltimore MD 21223,39.282389999999999,-76.655287000000001,"722513",BERKO,LORA,SIOBHAN
CHU'S BODY SHOP,283 S Hilton St Baltimore MD 21229,39.281458999999998,-76.671835000000002,"811121",MILLS,TAMARA,FRANKIE
SONG CARRY OUT,1814 Edmondson Ave Baltimore MD 21223 USA,39.295344000000000,-76.646592999999996,"722513",MCQUEEN,THOMAS,NULL
"TIME PRINTERS, INC.",251 N Warwick Ave Baltimore MD 21223,39.290975000000003,-76.655636000000001,"323111",FLAHERTY,BRANDI,LETICIA
A B TRUCKING INC,3087 Arunah Ave Baltimore MD 21216,39.294899999999998,-76.668430000000001,"484110",FITZGERALD,MAN,NULL
DELTA CONTRACTORS & ASSOCIATES LLC,3225 Strickland St Baltimore MD 21229,39.277419999999999,-76.670331000000004,"238140",BRAUN,LEONA,JESSIE
WINGS THINGS WILKENS AVE,3188 Wilkens Ave Baltimore MD 21223,39.275128000000002,-76.668092999999999,"722513",COSTER,TERRY,NULL
HEAVEN SENT ME CLEANING SERVICE,2878 Old Franklin St Baltimore MD 21223,39.293253000000000,-76.664640000000006,"541618",MARCUM,DONALD,NULL
BLACKTIE EATERY & CATERING,1705 Edmondson Ave Baltimore MD 21223 USA,39.295068999999998,-76.644409999999993,"722320",MARTINES,MONICA,CHARLENE
HOLLINS STREET PHOENIX LP,50 S Calverton Rd Baltimore MD 21223,39.287104999999997,-76.653064999999998,"531110",BROTHERTON,VERNON,LEROY
CROSS TRACK LIQUORS,2675 W Baltimore St Baltimore MD 21223,39.287416999999998,-76.659381999999994,"445310",COOPER,PATRICIA,NULL
VERONICA THOMAS BENEFITS COUNSELING SERVICES LLC,1860 W Lexington St Baltimore MD 21223,39.290773999999999,-76.646383000000000,"541990",ROHLFING,MARION,NULL
SUDSVILLE LAUNDRY,1849 Frederick Ave Baltimore MD 21223,39.286825999999998,-76.646260999999996,"423850",GOINS,BRANDON,ANDREW
VERA EDMONDS,2832 W Mulberry St Baltimore MD 21223,39.292786999999997,-76.663027999999997,"999990",IPPOLITO,CAITLYN,NULL
STAR MARKET,208 N Monroe St Baltimore MD 21223,39.290742000000002,-76.647300000000001,"445110",LAU,MICHELLE,LINDA
VIVA HOUSE BALTIMORE CATHLIC WORKERS INC,1726 Boyd St Baltimore MD 21223,39.286909999999999,-76.643900000000002,"813110",TORRES,ROBERT,NULL
SOUTH V LIQUOR AND GROCERY,105 S Mount St Baltimore MD 21223 USA,39.285941999999999,-76.643371999999999,"424820",JONES ENTERTAINMENT LLC,NULL,NULL
"KAREN M. SMITH PDS, LLC",568 N Fulton Ave Baltimore MD 21223,39.294783000000002,-76.645765999999995,"999990",ROBERTS,JESUS,STEVIE
PENN OPTICAL CO LTD,2421 Frederick Ave Baltimore MD 21223,39.282389999999999,-76.655287000000001,"621320",RIES,JAMES,NULL
SECOND CHANCE INTERNATIONAL MI,2624 Harlem Ave Baltimore MD 21216,39.295768000000002,-76.660567000000000,"541990",BOGUE,ROCHELLE,LATONIA
HAIR M FAMILY HAIR CARE,1705 Edmondson Ave Baltimore MD 21223 USA,39.295068999999998,-76.644409999999993,"812111",MANNS,EMILY,LETTY
OPEN ARMS SUPPORTIVE PROGRAM,1959 Penrose Ave Baltimore MD 21223,39.291086999999997,-76.648105999999999,"999990",CANTU,POLLY,NULL
NEW JERUSALEM PRAISE TABERNACLE,2512 Arunah Ave Baltimore MD 21216 USA,39.295672000000003,-76.656874999999999,"999990",RUIZ,GAIL,CARMEN
RPI BILLING SOLUTIONS,2512 W Mosher St Baltimore MD 21216 USA,39.299702000000003,-76.657059000000004,"999990",ULLMER,WILLIE,EVA
NEW TABERNACLE BAPTIST CHURCH,148 S Pulaski St Baltimore MD 21223,39.285378000000001,-76.650204000000002,"813110",LEETCH,MARTHA,DIANE
"TRIFECTA, LLC",2843 Harlem Ave Baltimore MD 21216,39.295352000000001,-76.663728000000006,"999990",TAMAYO,WILLIAM,NULL
THE TAX WISE SYSTEM INC,2474 Frederick Ave Baltimore MD 21223,39.283746000000001,-76.655669000000003,"561499",CREGO,DERRICK,CHAUNCEY
LA AUTO SERVICE,2150 Edmondson Ave Baltimore MD 21223,39.295662999999998,-76.651396000000005,"811118",WI,SUE,KATHY
RENT-A-CENTER,159 Landwehr Ln Baltimore MD 21223,39.285063000000001,-76.653222000000000,"532210",RUCKER,CARRIE,NULL
DOSWELL CATHEDRAL CHURCH OF GOD AND CHRIST,574 Doswell Ave Baltimore MD 21223,39.294429999999998,-76.658043000000006,"813110",WILSON,JAMES,MICHEAL
THATS MY MECHANIC AUTO REPAIR,32 S Franklintown Rd Baltimore MD 21223,39.286574000000002,-76.659126000000001,"811111",MCMURRAY,DAVID,NULL
QUINCOLE LLC,174 Edgewood St Baltimore MD 21229,39.290092000000001,-76.676613000000003,"561990",HUTCHINSON,MARLON,PHILLIP
ACADEMY OF SUCCESS,2586 Frederick Ave Baltimore MD 21223,39.282761999999998,-76.657203999999993,"713940",LEPAGE,BERNARD,AL
"UNITED OPERATING CO., INC.",991 Millington Ave Baltimore MD 21223,39.278013999999999,-76.655232999999996,"561499",MOBBS,ELIZABETH,BARBARA
"YUNJUNG HUH, INC.",2354 Wilkens Ave Baltimore MD 21223,39.280265999999997,-76.652889000000002,"999990",PAYAN,PATRICIA,NICOLE
KIT HUNG INC,1749 Ramsay St Baltimore MD 21223,39.283009000000000,-76.644409999999993,"561990",HEAL,JESSICA,DONNA
"PLEASANT HOUSING SUPPORTIVE PROGRAM, INC.",10 N Gilmor St Baltimore MD 21223,39.288894999999997,-76.642613999999995,"721310",HALL,ROBERT,NULL
"JAWAD, INC.",3352 W Baltimore St Baltimore MD 21229,39.286012999999997,-76.672746000000004,"999990",VONK,IRENE,NULL
"ANAYA GUTTERS SPECIALISTS, INC",2009 Eagle St Baltimore MD 21223 USA,39.280735000000000,-76.647619000000006,"238390",BOWMAN,BETTY,NULL
ALWAYS WATERPROOFING,3341 Dulany St Baltimore MD 21229,39.274408999999999,-76.674255000000002,"238990",GIBSON,EDNA,LITA
KATHERINE BEAUTY SALON,514 Denison St Baltimore MD 21229,39.292935000000000,-76.674285999999995,"812112",KIMBLE,MARIA,NULL
T & M MARKET,605 Allendale St Baltimore MD 21229,39.294189000000003,-76.678184000000002,"445110",WEIMAN,JASON,NULL
BROWN RONNIE CHURCH,2258 W Saratoga St Baltimore MD 21223,39.291975000000001,-76.652511000000004,"813110",TORRES,RUTH,STELLA
CC PACKAGE GOODS,1779 W Lanvale St Baltimore MD 21217,39.297429000000001,-76.645409000000001,"445310",GLASS,NORMAN,NULL
L G GARAGE,1668 Hollins St Baltimore MD 21223,39.287585000000000,-76.643310999999997,"811111",GLAZE,FREDERICK,NULL
SHIELDS PLACE PROPERTIES LLC,1713 Hollins St Baltimore MD 21223,39.287126999999998,-76.644182999999998,"531312",LOZADA,ESTHER,NULL
TAUS UPHOSTERY CO,2321 W Mulberry St Baltimore MD 21223,39.292656000000001,-76.652857999999995,"999990",BATES,JACK,NULL
PNS MARKET,407 Furrow St Baltimore MD 21223,39.282682999999999,-76.651703999999995,"445110",LOISEAU,DEBRA,NULL
TEAHOUSE,2107 W Mulberry St Baltimore MD 21223,39.292639000000001,-76.650927999999993,"999990",KLEIS,SEAN,NULL
2000 MARKET INC,173 Goldsmith St Baltimore MD 21223,39.285294000000000,-76.647411000000005,"445110",JOHNSON,TOMMY,JOHN
KB'S CHILDCARE CENTER,2532 W Pratt St Baltimore MD 21223,39.284863000000001,-76.656628999999995,"624410",CHRISTIE,RICHARD,NULL
THE BECOTE GROUP LLC,2918 Edmondson Ave Baltimore MD 21223,39.294612000000001,-76.665330999999995,"999990",CROFT,SARAH,BRANDY
"VC LEARNING ARC, INC.",424 Allendale St Baltimore MD 21229,39.291960000000003,-76.678504000000004,"611699",KABAT,PABLO,SCOTT
MELALEUCA,2669 St Benedict St Baltimore MD 21223,39.278815000000002,-76.657971000000003,"452990",STEINKAMP,DANIELLE,NULL
FRANKLIN SQUARE SCHOOL APTS,242 N Mount St Baltimore MD 21223,39.291249999999998,-76.644158000000004,"531110",CAMERER,JULENE,NULL
PULASKI DEVELOPMENT LLC,1849 Frederick Ave Baltimore MD 21223,39.286825999999998,-76.646260999999996,"531210",SUBRAMANIAN,MARGARET,ELAINA
JOHN DONALD CATERING SERVICE,75 Benkert Ave Baltimore MD 21229,39.285684000000003,-76.673713000000006,"541990",LANE,JENNIFER,DAWNA
QUICK RESPONSE AUTO REPAIR,3170 Stafford St Baltimore MD 21229,39.279780000000002,-76.669430000000006,"811412",VANLEER,MARYANN,JUDY
STRAIGHT EDGE TATTOO SHOP,480 Wellesley St Baltimore MD 21229,39.279451000000002,-76.668380999999997,"812199",SHOUPE,RICHARD,KARL
CHAMBERS,1000 S Monroe St Baltimore MD 21230,39.276094000000001,-76.644609000000003,"541410",HERNANDEZ,DIANE,JOSEPHINE
THE WILLIAM C O'BRIEN COMPANY INC,3008 Wilkens Ave Baltimore MD 21223 USA,39.276085999999999,-76.665654000000004,"423610",CULLEN,POLLY,CARMELITA
THE ENVIRONMENT MARYLAND DEPARTMENT OF,1000 S Monroe St Baltimore MD 21230,39.276094000000001,-76.644609000000003,"924110",IRVIN,DANIAL,NULL
UMBC CHOICE PROGRAM,3192 Wilkens Ave Baltimore MD 21223,39.275103999999999,-76.668163000000007,"611310",MINTER,ANTHONY,NULL
FAITH CHRISTIAN WORSHIP CHAPEL,734 N Pulaski St Baltimore MD 21217,39.296995000000003,-76.650953000000001,"813110",PETERSEN,KATHLEEN,HELEN
CONTI ENVIRONMENTAL,728 N Grantley St Baltimore MD 21229,39.296095000000001,-76.676989000000006,"541620",THOMAS,JOHN,NULL
HIGHER GROUND TRANSPORTAT,166 N Bentalou St Baltimore MD 21223,39.290142000000003,-76.653126999999998,"488999",HIGLEY,EMMITT,MELVIN
ANDREA BATTLE,3581 St Joseph St Baltimore MD 21229,39.286380000000001,-76.677932999999996,"812112",SYERS,HARRY,NULL
"H LEWIS COX INTERNATIONAL MANAGEMENT GROUP, INC.",523 Allendale St Baltimore MD 21229,39.292898000000001,-76.678065000000004,"813410",RIMA,CARMEN,SHARRON
NIKKI DAY CARE,718 Whitmore Ave Baltimore MD 21216,39.295707000000000,-76.658182999999994,"624410",BUXBAUM,JOHNNIE,NULL
GLAMOUR AND ELEGANCE EVENT PLANNING,850 Whitmore Ave Baltimore MD 21216 USA,39.297573999999997,-76.658287999999999,"999990",ROGERS,ROBERT,NULL
JULIA'S PLACE,678 Linnard St Baltimore MD 21229,39.294995999999998,-76.676665000000000,"624120",DEAN,WALTRAUD,NULL
FULL FORCE ENTERTAINMENT,234 N Payson St Baltimore MD 21223,39.291424999999997,-76.649068000000000,"711510",BREAUX,DIAN,MARIE
"ANDERSON, R A WOOD PRODUCTS INC",289 N Franklintown Rd Baltimore MD 21223,39.290756999999999,-76.660432999999998,"337211",HILDENBRAND,MARK,JOSEPH
YOUNG ENTERPRISES,810 Mt Holly St Baltimore MD 21229,39.296821000000001,-76.680149999999998,"561499",WILSON,KYLE,THOMAS
JACQUELINE TAYLOR,514 Mt Holly St Baltimore MD 21229,39.292796000000003,-76.679803000000007,"711510",HINOJOSA,JESSIE,RICHARD
ST EDWARD'S HEAD START,2855 W Lafayette Ave Baltimore MD 21216,39.297944999999999,-76.664089000000004,"624410",MCCURRY,HORACE,MARK
ECONOMY MART,7 S Gilmor St Baltimore MD 21223,39.287880000000001,-76.641998000000001,"445120",FORT,JOHN,AARON
DO IT ALL CLEANING,1018 N Rosedale St Baltimore MD 21216,39.299518999999997,-76.668154999999999,"561790",JORDAN,GUY,NULL
AIR FILTERS INC,445 S Longwood St Baltimore MD 21223,39.279595999999998,-76.666138000000004,"333413",FALLIN,ELAINE,JEANIE
JIM'S FOOD MARKET,2134 Ramsay St Baltimore MD 21223,39.283118999999999,-76.650270000000006,"445110",VITALE,KATHARINE,GENEVIEVE
DOROTHY'S CLEANING SERVICE,3742 Woodridge Rd Baltimore MD 21229,39.297398000000001,-76.679152999999999,"561720",SARRACINO,WILLIAM,MICHAEL
"MELLON MONETARY FUND, INC.",218 S Smallwood St Baltimore MD 21223,39.284776999999998,-76.651476000000002,"999990",ALE,SHERWOOD,NULL
O W B INC,2489 Christian St Baltimore MD 21223,39.279580000000003,-76.654728000000006,"999990",DUBOIS,NICHOLAS,IRWIN
BALTIMORE CITY CENTERS & PLAYGROUNDS,3613 W Mulberry St Baltimore MD 21229,39.291595000000001,-76.677480000000003,"713940",ROBINSON,MICHAEL,NULL
MUGHAL MANAGEMENT L.L.C,507 S Bentalou St Baltimore MD 21223,39.281294000000003,-76.652253000000002,"561110",SMITH,BETTY,NULL
FIDELITY CLEANING SOLUTIONS,2166 W Fairmount Ave Baltimore MD 21223,39.288805000000004,-76.651066999999998,"561720",VANDIVER,GORDON,NULL
BRENDA ZIEGLER,2312 Ashton St Baltimore MD 21223,39.281520999999998,-76.652730000000005,"722410",WANG,ROSE,NULL
INTENSE MOTOR SPORTS,2671 Frederick Ave Baltimore MD 21223,39.280881999999998,-76.659147000000004,"811118",BAUMAN,MARCY,MARGUERITE
GOLDEN AGE CLUB AT PRIMROSE,820 S Caton Ave Baltimore MD 21229 USA,39.274419000000002,-76.672038999999998,"713940",MAYES,DULCIE,NULL
"DEPENDABLE WELDING, INC",266 S Ellamont St Baltimore MD 21229,39.282172000000003,-76.670632999999995,"541618",RICHARDS,WILLIAM,NULL
STARS OF TOMORROW CHILDCARE CENTER INC,2766 W Franklin St Baltimore MD 21223,39.293444999999998,-76.662070000000000,"624410",ROCK,EMIL,DARWIN
"2533 GARRETT AVE, LLC",816 N Bentalou St Baltimore MD 21216 USA,39.297953000000000,-76.653667999999996,"561990",BOONE,JAMES,NULL
"JLN CONSTRUCTION SERVICES, L.L.C.",330 N Warwick Ave Baltimore MD 21223 USA,39.292532000000001,-76.656952000000004,"236220",DOBIAS,DELORIS,ELIZABETH
BAYNES QUALITY CUSTOM FURN CO,104 Mc Phail St Baltimore MD 21223 USA,39.286423999999997,-76.653041000000002,"337110",HARRISON,RONALD,NULL
PAUL A BETTER,705 Wheeler Ave Baltimore MD 21216,39.295749000000001,-76.654680999999997,"999990",POWERS,CHRISTINE,ROMELIA
"ZION HILL MISSIONARY BAPTIST CHURCH, INC.",1611 W Lafayette Ave Baltimore MD 21217,39.298651999999997,-76.643266999999994,"813110",MARTINEZ,ANNIE,NULL
MARY M WASHINGTON,2730 W Lanvale St Baltimore MD 21216,39.297412000000001,-76.661940999999999,"999990",HEFNER,CHARLES,NULL
MAXIMUM CONSTRUCTION LLC,3102 Lohrs Ln Baltimore MD 21229,39.285040000000002,-76.668730999999994,"236115",AGUINALDO,KENNETH,NULL
GBG ASSOC,751 N Grantley St Baltimore MD 21229 USA,39.296419000000000,-76.676083000000006,"541611",RADERMACHER,ROSIE,NULL
"ACADEMY SCASFOLDING & STONE, LLC",101 N Warwick Ave Baltimore MD 21223 USA,39.289470000000001,-76.655373999999995,"238140",MARTINEZ,ANN,BRENDA
A LITTERI,2720 Wilmarco Ave Baltimore MD 21223,39.274194999999999,-76.658921000000007,"452990",LISTER,CHARLES,RICO
KIDZ PRAZE,2653 W Lafayette Ave Baltimore MD 21216,39.298009000000000,-76.660916000000000,"624410",MONTICELLO,ROBERT,ANDREW
BLACK JACKS PIZZA N RIBS,1906 Ramsay St Baltimore MD 21223,39.283315000000002,-76.646935999999997,"722513",KNOWLES,EUGENE,NULL
CJD CONSTRUCTION AND HOME IMPROVEMENT,2022 W Fayette St Baltimore MD 21223,39.289566000000001,-76.649054000000007,"236115",DELUNA,CHRISTOPHER,NULL
OPEN DOORS INC,2700-2798 Rayner Ave Baltimore MD 21216,39.296608999999997,-76.662392999999994,"999990",ARRINGTON,CHERYL,CHRISTINA
LADY LUCKEY ERRAND SERVICE,52 N Monroe St Baltimore MD 21223,39.289079000000001,-76.647148999999999,"541990",ODGERS,JOSE,NULL
LAWS CONSTRUCTION COMPANY,638 N Fulton Ave Baltimore MD 21217,39.295665000000000,-76.645857000000007,"236115",BONDS,ESTELLA,NULL
B J'S CARRYOUT,2301 Wilkens Ave Baltimore MD 21223,39.279949999999999,-76.651944000000000,"722513",WILKS,MARK,EMMETT
MARIO'S DRY WALLING,2531 W Baltimore St Baltimore MD 21223,39.287547000000004,-76.657163999999995,"238310",COLVIN,PHILLIP,NULL
WALLS AUTO & TRUCK HAULING,455 S Mount St Baltimore MD 21223,39.282589999999999,-76.643248999999997,"484110",REED,JACKIE,NULL
"MYSTIC MANAGEMENT, INC.",422 Parksley Ave Baltimore MD 21223,39.279674000000000,-76.665734000000000,"561110",VARGAS,ILANA,ROBERTA
IRVINGTON FLORISTS INC,3572 Frederick Ave Baltimore MD 21229,39.281835999999998,-76.676063999999997,"453110",LLOYD,SUSAN,DOROTHY
TOMMY MEEKS MECHANIC SHOP,2230 Eagle St Baltimore MD 21223 USA,39.279893000000001,-76.651197999999994,"453998",WERNER,GARY,NULL
GANN SAFETY SUPPLY,2671 Frederick Ave Baltimore MD 21223,39.280881999999998,-76.659147000000004,"423990",GRAVES,BEE,NULL
H MITCHNER APTS,2735 Mosher St Baltimore MD 21216 USA,39.299064999999999,-76.662700000000001,"531110",MCCARN,JOSEPH,TIMOTHY
QUALITY LOGISTICS LLC,3253 Phelps Ln Baltimore MD 21229,39.286712000000001,-76.671615000000003,"488999",CRAWFORD,JANEEN,NULL
TAYLOR MADE PRODUCTIONS,514 Mt Holly St Baltimore MD 21229,39.292796000000003,-76.679803000000007,"512120",POWERS,CINDY,ALINE
MA PATS GOODIES,3537 Gelston Dr Baltimore MD 21229,39.297590000000000,-76.675714999999997,"999990",GREGORY,MARIA,NULL
B & M APPLIANCES INC,154 Harmison St Baltimore MD 21223,39.285282000000002,-76.649321999999998,"811412",SIMPSON,ANNIS,NULL
POPLAR BARBER SHOP,811 N Franklintown Rd Baltimore MD 21216,39.296031999999997,-76.665210000000002,"812111",LARSON,RICHARD,RAY
"CARROLL AWNING CO., INC.",445 S Longwood St Baltimore MD 21223,39.279595999999998,-76.666138000000004,"314910",MCMICHAEL,SARAH,LORI
EMPOWERING LIVES,1738 Harlem Ave Baltimore MD 21217,39.296643000000003,-76.644767999999999,"561210",GOMEZ,EDGAR,NULL
BEE RENTALS LLC,2858 Rayner Ave Baltimore MD 21216,39.296663000000002,-76.664091999999997,"532490",JACOBS,MICHAEL,THOMAS
"DUNMORE, SHANELL INDV/T/A",816 N Bentalou St Baltimore MD 21216 USA,39.297953000000000,-76.653667999999996,"561990",GALLEGOS,ALBERTA,NULL
BORN AGAIN HAIR,207 N Smallwood St Baltimore MD 21223,39.290573000000002,-76.651469000000006,"812112",METHVIN,TERESA,NULL
FAMILY AFFAIR,973 Allendale St Baltimore MD 21229,39.298524000000000,-76.678425000000004,"311811",ORR,FRANK,NULL
LEGEND MOTOR CARS INC,2901 Benson Ave Baltimore MD 21223 USA,39.274926999999998,-76.663758000000001,"441228",BENDER,DAVID,RONALD
AVALON LOGISTICS FLORIDA INC,477 S Pulaski St Baltimore MD 21223,39.281457000000003,-76.649130999999997,"488999",JOHNSON,DORIS,LUCILLE
MELVIN'S FOOD MARKET,2209 W Baltimore St Baltimore MD 21223,39.287798000000002,-76.651674000000000,"445110",SCOTT,GERALD,NULL
"A&T CONSULTING VENTURES, LLC",2118 Penrose Ave Baltimore MD 21223,39.291317999999997,-76.650486999999998,"541618",KREUTER,RUBEN,JEREMY
PUBLIC WORKS,363 N Franklintown Rd Baltimore MD 21223,39.292282000000000,-76.661285000000007,"221320",SAMPLE,STEVE,CLIFFORD
THE POWER OF CHRIST MINISTRIES,2524 Frederick Ave Baltimore MD 21223,39.283306000000003,-76.656346999999997,"813110",ANDERSON,JESSICA,NULL
LEE,2815 W Lafayette Ave Baltimore MD 21216,39.297888999999998,-76.663171000000006,"445110",WARREN,JASON,NULL
SANTOWN LAUNDRY,838 N Fulton Ave Baltimore MD 21217 USA,39.298672000000003,-76.646019999999993,"812310",HOLCOMBE,MICHELLE,NULL
BENTALOU ELEMENTARY SCHOOL,221 N Bentalou St Baltimore MD 21223,39.290923999999997,-76.652833999999999,"611110",CARTER,CHARISSE,RACHEL
RAYS TAX PREPARATION,3412 W Caton Ave Baltimore MD 21229,39.286447000000003,-76.673570999999995,"541213",TRACY,ROBERT,JOHN
FRESH START,3252 W Baltimore St Baltimore MD 21229,39.286008000000002,-76.671766000000005,"624410",ADAMS,JORDAN,NULL
EDDIE ROBERT WILLIAMS SR,3540 W Franklin St Baltimore MD 21229,39.292827000000003,-76.675693999999993,"999990",JICHA,JEREMY,NULL
BJ'S MINI MARKET,2169 Hollins St Baltimore MD 21223,39.286797999999997,-76.650953000000001,"445120",VOSS,ANTHONY,NULL
UNITY PROGRESSIVE MEMORIAL CHURCH OF GOD,2335 W Lexington St Baltimore MD 21223,39.290135999999997,-76.653497000000002,"813110",HAYAKAWA,DIANE,JANICE
M & G CUSTOMS,3170 Stafford St Baltimore MD 21229,39.279780000000002,-76.669430000000006,"811121",ROLEN,GEORGE,JAMES
NEW LIFE FELLOWSHIP CHURCH OF CHRIST,3613 W Mulberry St Baltimore MD 21229,39.291595000000001,-76.677480000000003,"813110",GONZALES,IMOGENE,TIFFANY
WILL PERFECT PAINTING LLC,56 S Culver St Baltimore MD 21229,39.285643000000000,-76.678067999999996,"238320",FIELDER,MARY,IDA
C AND E TRUCKING LLC,820 S Caton Ave Baltimore MD 21229 USA,39.274419000000002,-76.672038999999998,"484110",HALL,SARA,JENNIFER
"TARTARUGA, LLC",1870 W Fayette St Baltimore MD 21223,39.289653000000001,-76.646628000000007,"999990",HASSEL,PEGGY,NULL
SEAPRIDE CRAB HOUSE,205 S Monroe St Baltimore MD 21223 USA,39.284833999999996,-76.646555000000006,"445220",COFFEY,THOMAS,ALAN
JERICHO HOUSE OF PRAISE,646 Linnard St Baltimore MD 21229,39.294612999999998,-76.676642999999999,"999990",LAM,KENNETH,NULL
DADS DELIVERY LLC,820 S Caton Ave Baltimore MD 21229 USA,39.274419000000002,-76.672038999999998,"484110",WILLIAMS,STEVE,CLARENCE
CONCEPTS IN HEALTHCARE INC,821 N Fulton Ave Baltimore MD 21217,39.297877999999997,-76.645463000000007,"621999",STACKPOLE,DEBRA,NULL
R GREENES HOME REPAIRS AND LAWN CARE,2017 McHenry St Baltimore MD 21223,39.284056999999997,-76.648662000000002,"561730",MUNGIN,JASON,NULL
MRG7 INC,12 N Mt Olivet Ln Baltimore MD 21229,39.286257999999997,-76.668441000000001,"999990",WALLS,MATTIE,NULL
"SCANDIA MANUFACTURING CO., INC.",508 S Brunswick St Baltimore MD 21223,39.278708999999999,-76.659626000000003,"332710",SCIMECA,AGRIPINA,NULL
A-1 AUTOMOTIVE LIGHT TRCK REPR,433 Wellesley St Baltimore MD 21229,39.279986999999998,-76.668015999999994,"811111",DOYLE,WADE,NULL
NICK'S RESTAURANT & DELI,570 S Smallwood St Baltimore MD 21223,39.280878999999999,-76.650814999999994,"722513",HILTON,BERTRAM,DENNIS
ROGUE MOTORS LLC,3165 Stafford St Baltimore MD 21229,39.279111000000000,-76.669428999999994,"441228",REA,SHANNA,NULL
"WATTSLINE, LLC",2318 Arunah Ave Baltimore MD 21216,39.295783999999998,-76.653547000000003,"561990",WELLS,DORA,NULL
CHURCH OF LIVING GOD,101 N Warwick Ave Baltimore MD 21223 USA,39.289470000000001,-76.655373999999995,"813110",HERLONG,MICHAEL,DARREL
"AMAL, LLC",3352 W Baltimore St Baltimore MD 21229,39.286012999999997,-76.672746000000004,"447190",ORTIZ,ELANE,MAXINE
11-Jul,2747 W Franklin St Baltimore MD 21223,39.293002000000001,-76.661798000000005,"445120",MEADE,ASHLEY,NULL
TRUCK DRIVER'S LOCAL UNION #35,2901 Benson Ave Baltimore MD 21223 USA,39.274926999999998,-76.663758000000001,"813930",SMITH,CLEMENT,NULL
MARYLAND HEALTHCARE CLINIC INC,2421 Frederick Ave Baltimore MD 21223,39.282389999999999,-76.655287000000001,"621340",SLAUGHTER,JOHN,NULL
STAR INDUSTRIES LLC,134 S Warwick Ave Baltimore MD 21223,39.285370000000000,-76.654358000000002,"339999",FAZZINI,LAURIE,NULL
BROWN'S LIQUORS,610 N Bentalou St Baltimore MD 21216,39.295419000000003,-76.653435000000002,"445310",MOORE,THOMAS,NULL
MOORS TRANSPORTATION LLP,3523 Edmondson Ave Baltimore MD 21229 USA,39.293736000000003,-76.676506000000003,"488999",UTTER,EVELYN,NULL
"WOODS'A ENTREPRENEURS FOR CHILDREN, YOUTH AND FAMILY ASSOCIATION, INC.",2475 Edmondson Ave Baltimore MD 21223,39.294516999999999,-76.655940999999999,"813990",RACHAL,JULIE,NULL
CALIFORNIA AUTO SALES,3316 Strickland St Baltimore MD 21229,39.277700000000003,-76.671888999999993,"441120",YOUNG,MARISELA,MARION
ECHO HOUSE MULTISERVICE CENTER,1711 W Fayette St Baltimore MD 21223,39.289383000000001,-76.644233999999997,"624190",AVERY,LEE,MARIANNE
A & A ART & ANTIQUE GALLERY,2450 Harlem Ave Baltimore MD 21216,39.296425999999997,-76.655646000000004,"453920",SINKHORN,SANDRA,CYTHIA
"PS INVESTIGATIVE SERVICES, INC.",2461 Harlem Ave Baltimore MD 21216,39.296038000000003,-76.655804000000003,"541990",WHITTEN,WILLIAM,NULL
FRIENDS OF DAISY FIELD INC,345 Gwynn Ave Baltimore MD 21229,39.290962000000000,-76.673458999999994,"813990",STOWE,BRUCE,NULL
HAZARDOUS WASTE ENFORCEMENT,1000 S Monroe St Baltimore MD 21230,39.276094000000001,-76.644609000000003,"924110",HUERTA,DON,NULL
"MIRACLE'S HOME CARE, INC.",153 Edgewood St Baltimore MD 21229,39.289506000000003,-76.676700999999994,"621610",SPARACIO,BROOKE,LILY
UNLIMITED SOLUTIONS LLC,972 N Stricker St Baltimore MD 21217,39.299728000000002,-76.641793000000007,"525920",RUIZ,MERCEDES,NULL
WESTSIDE PHARMACY&WELLNESS CT,154 Harmison St Baltimore MD 21223,39.285282000000002,-76.649321999999998,"621999",SHEFFIELD,WILLIAM,MICHAEL
REISTERSTOWN ROAD CITGO TA,2835 Edmondson Ave Baltimore MD 21223,39.294088000000002,-76.663843000000000,"447190",MORA,VIRGINIA,NULL
"KAREN CARRINGTON & ASSOCIATES, LTD",1932 W Fayette St Baltimore MD 21223,39.289622000000001,-76.647559000000001,"561990",CIMINO,MARILYN,ALYSSA
ONE-WAY NETWORK L.L.C.,3508 W Caton Ave Baltimore MD 21229,39.287534999999998,-76.675019000000006,"999990",WIMBERLY,CHRISTINA,LORRAINE
WEST & SON S C & C LLC,2526 W Baltimore St Baltimore MD 21223,39.287868000000003,-76.657199000000006,"999990",GARY,ALLISON,MARIBEL
NCOP SERVICES INC,1044 S Monroe St Baltimore MD 21230,39.275877000000001,-76.644113000000004,"541990",WILMETH,CAMILLE,NULL
LITTLE LANTERN INN,2013 Edmondson Ave Baltimore MD 21223,39.294908000000000,-76.649429999999995,"721191",KELLER,DEMARCUS,NULL
BIG BOYS PIZZA,3170 Stafford St Baltimore MD 21229,39.279780000000002,-76.669430000000006,"722513",FISHMAN,THOMAS,NULL
NEW BREED DETAILING,3855 W Franklin St Baltimore MD 21229,39.292220999999998,-76.680080000000004,"811192",AMRHEIN,CLARICE,NULL
THE REMNANT CHURCH,2723 W Fairmount Ave Baltimore MD 21223,39.288187000000001,-76.659712999999996,"813110",SCHOEN,CATHY,NULL
BEST HEATING & AIR CONDITIONING,3199 Opel Ln Baltimore MD 21229,39.283807000000003,-76.668960999999996,"238220",FREITAG,NATHAN,GARY
LAWRENCE AVE PARTNERSHIP,211 S Pulaski St Baltimore MD 21223,39.284835000000001,-76.649687999999998,"493120",MONGER,KRISHNA,NULL
ABUNDANT LIFE INTERNATIONAL MINISTRIES INC,1922 W Pratt St Baltimore MD 21223 USA,39.285390999999997,-76.647548999999998,"813110",GALANTI,AURELIA,SHELLY
THE SHIPLEY HILL ORGANIZATION FOR THE PE,2742 W Fairmount Ave Baltimore MD 21223,39.288531999999996,-76.659999999999997,"541330",SCHWARTZ,WILLIAM,JAMES
"MARY'S POTTERY, INC",3316 Strickland St Baltimore MD 21229,39.277700000000003,-76.671888999999993,"423220",BLASINGAME,THOMAS,NULL
ZULFIQAR ALI MD,519 Denison St Baltimore MD 21229,39.293005000000001,-76.673868999999996,"621111",LOVE,MARK,THOMAS
BARBARA ROBERTS AND CHRISTOPHER LESTER,129 S Monastery Ave Baltimore MD 21229 USA,39.285007999999998,-76.679485000000000,"999990",DROMGOOLE,MARY,NULL
DEPENDABLE TRANSFER LLC,934 N Warwick Ave Baltimore MD 21216,39.298766999999998,-76.656875999999997,"999990",DUCRE,HUGO,NOEL
SPRINGER LIQUORS,477 S Pulaski St Baltimore MD 21223,39.281457000000003,-76.649130999999997,"445310",WATSON,CALVIN,JORGE
JOSEPH MOULDEN,2712 Edmondson Ave Baltimore MD 21223,39.294741999999999,-76.661841999999993,"561990",SCHMIT,ROY,NULL
"P.L.S. CONSTRUCTION, INC.",3638 Harlem Ave Baltimore MD 21229,39.295400999999998,-76.677751999999998,"236115",ROATH,GWENDOLYN,DEBRA
DARRELL L HUNTER FUNERAL SER,248 Fredhilton Pass Baltimore MD 21229,39.281661000000000,-76.672838999999996,"812210",LIAN,RONALD,NULL
DEJANAES GROCERY AND DELI,114 S Catherine St Baltimore MD 21223 USA,39.285116000000002,-76.656239999999997,"722513",MILLER,PATRICIA,JUDITH
SWEET FELLOWSHIP BAPTIST CHURCH,772 N Payson St Baltimore MD 21217,39.297324000000003,-76.649366000000001,"813110",GARCIA,PATRICK,BARRY
AA AFFORDABLE TRANSPORTATION LLC,63 S Franklintown Rd Baltimore MD 21223,39.287250999999998,-76.658496000000000,"488999",STEPHENS,MARION,RUFUS
PRICELESS AUTO RENTAL,200 N Warwick Ave Baltimore MD 21223 USA,39.290520999999998,-76.656279999999995,"532490",SUCHARSKI,JENNIFER,RUTH
SAINT JAMES COUNSELING CENTER,114 S Monroe St Baltimore MD 21223,39.285812999999997,-76.646963000000000,"622210",WALSH,PHIL,NULL
4 SURE ENTERTAINMENT LLC,480 Wellesley St Baltimore MD 21229,39.279451000000002,-76.668380999999997,"711510",TREJO,JACQUELINE,TAMMY
A STEP FORWARD,1826 Rayner Ave Baltimore MD 21217,39.297131000000000,-76.646613000000002,"622210",MURPHY,RONALD,NULL
ELMER BOWEN EMPLOYEE,2253 Wilkens Ave Baltimore MD 21223,39.280316999999997,-76.651178999999999,"999990",GERTLER,LAUREN,NULL
TAG PLANET & TITLE,3008 Wilkens Ave Baltimore MD 21223 USA,39.276085999999999,-76.665654000000004,"541191",WOOD,COURTNEY,NULL
MARYLAND PSYCHIATRIC RES CTR,3192 Wilkens Ave Baltimore MD 21223,39.275103999999999,-76.668163000000007,"611310",GALLEGOS,ERASMO,DAVID
HOUSE CALLS CLEANING SERVICES,3067 W Lanvale St Baltimore MD 21216,39.296883999999999,-76.667714000000004,"561790",ARAGON,IRENE,NULL
"DOUBLE O TWO, INC.",859 McKean Ave Baltimore MD 21217,39.298293999999999,-76.646563999999998,"999990",NOLLEY,SUSANNAH,LOUISE
ST ELIZABETH REHAB,1755 W Baltimore St Baltimore MD 21223,39.288100999999997,-76.644774999999996,"561990",MAYNARD,JEAN,NULL
MARION BUTLER MILAM,490 Brunswick St Baltimore MD 21223 USA,39.279218999999998,-76.659542999999999,"999990",HENSLER,MARCI,NULL
RYKOFF SEXTON INC,2720 Wilmarco Ave Baltimore MD 21223,39.274194999999999,-76.658921000000007,"424410",STRUTHERS,NORMAN,PAUL
D S TECHNICAL SERVICES,649 S Brice St Baltimore MD 21223,39.280287000000001,-76.647604999999999,"999990",WEANT,RICHARD,NULL
MARYLAND BEVERAGE ASSOC CDCI,424 Allendale St Baltimore MD 21229,39.291960000000003,-76.678504000000004,"561499",HAMPTON,BRITTNEY,NULL
WOODEN AND SONS DRYWALL AND PAINT L.L.C.,2851 W Lafayette Ave Baltimore MD 21216 USA,39.297930999999998,-76.664277999999996,"424950",GUSTAFSON,ELSIE,NULL
INDEPENDENT TAXI CAB,3379 Frederick Ave Baltimore MD 21229,39.280814999999997,-76.673803000000007,"485310",PAEZ,MARY,NULL
ST THOMAS LUTHERAN CHURCH STUD,357 S Pulaski St Baltimore MD 21223,39.283285999999997,-76.649591000000001,"813110",HILL,WARREN,RAYMOND
DOWNTOWN TAXI CAB INC,12 S Warwick Ave Baltimore MD 21223,39.287438000000002,-76.655687000000000,"485310",DOUGLAS,CHRISTINA,LAURA
GOT IT GIZMO,470 S Pulaski St Baltimore MD 21223,39.281328000000002,-76.649493000000007,"334210",BAILEY,KENNETH,NULL
CARVER VOTECH HIGH SCHOOL,2568 W Lanvale St Baltimore MD 21216,39.297072999999997,-76.657515000000004,"611110",VALES,JULIE,NULL
WHODAT TRIBE INC.,748 Denison St Baltimore MD 21229,39.296019000000001,-76.673739999999995,"611699",BUCHANAN,MICHAEL,ALAN
BEFORE N AFTER CLEANING SERVICE,3110 Piquett Ln Baltimore MD 21229,39.282032000000001,-76.668267999999998,"561720",ARREOLA,DIRK,NULL
K & C VENDING SERVICES LLC,1058 Mt Holly St Baltimore MD 21229,39.299092999999999,-76.680267999999998,"454210",EASTMAN,TERESSA,NULL
GRANT TWO SPOT,34 Wheeler Ave Baltimore MD 21223,39.288466999999997,-76.654555000000002,"722410",BIVENS,LUCILLE,NULL
FRS CONSTRUCTION,2119 McHenry St Baltimore MD 21223,39.283968999999999,-76.650110999999995,"236115",DEJONGE,FRANCINE,NULL
CNK FAMILY DAYCARE,306 N Franklintown Rd Baltimore MD 21223 USA,39.292380999999999,-76.662154999999998,"624410",HANDY,VINCENT,STEVE
TOTAL HEALTH ADMIN WESTSIDE,2421 Frederick Ave Baltimore MD 21223,39.282389999999999,-76.655287000000001,"621999",DAMBROSIA,JOSEPH,NULL
CITY OF BALTIMORE,3201-3235 MD-144 Baltimore MD 21229,39.280456000000001,-76.670001999999997,"922160",YOUNG,THOMAS,JEFF
LAMBROS & HAMMERBACH,166 Willard St Baltimore MD 21223,39.284649000000002,-76.654904999999999,"451110",COOK,KRISTA,ANN
"STEP FORWARD, INCORPORATED, A",806 N Fulton Ave Baltimore MD 21217 USA,39.297877000000000,-76.645983999999999,"622210",BINDER,SEAN,MICHAEL
TATE'S TRANSPORTATION LLC,1780 W Lafayette Ave Baltimore MD 21217,39.298957000000001,-76.645516999999998,"485999",GARNER,EDWARD,WILLIE
"ACE IN THE HOLE BAIL BONDS, INC",654 Poplar Grove St Baltimore MD 21216,39.294856000000003,-76.665212999999994,"541990",PARSONS,MARY,BARB
UNITY 786 LLC,2023 Lemmon St Baltimore MD 21223,39.285480999999997,-76.648668999999998,"999990",LAWSON,ROBERT,DANNY
M&T BANK CORPORATION,1000 S Monroe St Baltimore MD 21230,39.276094000000001,-76.644609000000003,"522110",WILLIAMS,LISA,KAREN
LABON GEORGE TAPPER,2351 Arunah Ave Baltimore MD 21216,39.295391000000002,-76.654047000000006,"999990",PIERRE,MARY,NULL
REALITY CHECK,2509 W Baltimore St Baltimore MD 21223,39.287567000000003,-76.656631000000004,"531210",CURTIS,CHESTER,NULL
FAISON MARKETING INTERNATIONAL,2579 W Fairmount Ave Baltimore MD 21223,39.288133000000002,-76.658107999999999,"448150",BORUCKI,COLIN,ROBERT
THURSTON INSTRUMENT REPAIRS,1705 Edmondson Ave Baltimore MD 21223 USA,39.295068999999998,-76.644409999999993,"811412",GREEN,SERGIO,NULL
"WHAT IS YOUR MIRACULOUS STORY, LLC",678 Linnard St Baltimore MD 21229,39.294995999999998,-76.676665000000000,"999990",ROTH,ALVIN,JUAN
LINTON INC,745 N Rosedale St Baltimore MD 21216,39.296627999999998,-76.667968000000002,"561990",LEVIN,TIMOTHY,BRYON
YGLESIA CORPORATION,283 N Fulton Ave Baltimore MD 21223,39.291913999999998,-76.645206999999999,"999990",RODGERS,WANDA,NULL
THE IMANI CENTER,1978 W Fairmount Ave Baltimore MD 21223,39.288915000000003,-76.648512999999994,"621111",HULICK,MARISSA,MEGAN
UMBC CAMPUS BOOK STORE,3192 Wilkens Ave Baltimore MD 21223,39.275103999999999,-76.668163000000007,"451211",BATES,TONY,NULL
CLUB CLIMAX,9 S Catherine St Baltimore MD 21223,39.287492000000000,-76.655901000000000,"722410",CHARLES,ARLA,KIMBERLY
TIRE WORLD,3282 Lohrs Ln Baltimore MD 21229,39.284925999999999,-76.672006999999994,"811198",BENEDICTO,AMOS,DENNIS
"SKYLIGHT SERVICES, LLC",337 S Mount St Baltimore MD 21223,39.283957999999998,-76.643326000000002,"541990",BILLINGS,HUMBERTO,ROGER
BROOKLYN PARK FURNITURE CORP,2415 W Franklin St Baltimore MD 21223 USA,39.292802000000002,-76.655310000000000,"442110",SEALE,JENNIFER,NULL
THREE BROTHERS A1 AUTOMATIC & CLUTCH,433 Wellesley St Baltimore MD 21229,39.279986999999998,-76.668015999999994,"811113",ROBERTS,OLGA,NULL
DYNASTY ENTERPRISE,1845 Lemmon St Baltimore MD 21223,39.285544000000002,-76.647171999999998,"561499",THORPE,LEONA,NULL
STEVE'S AUTO WORKS,3542 Frederick Ave Baltimore MD 21229,39.281792000000003,-76.675685000000001,"811121",VILLARREAL,GLADYS,NULL
ESSIEN NIGERIAN FAMILY COMMUNITY DEVELOPMENT CORPORATION,12 Benkert Ave Baltimore MD 21229,39.285094000000001,-76.674813000000000,"561110",PAREDES,JACOB,JOE
THUNDERBIRD FOREST PRODUCTS,1000 S Monroe St Baltimore MD 21230,39.276094000000001,-76.644609000000003,"321918",DIX,CHRISTOPHER,CHRISTOPHER
DREAMS BLESSINGS CHILDCAR,920 N Bentalou St Baltimore MD 21216 USA,39.299106000000002,-76.653729999999996,"999990",CHESTER,CRAIG,NULL
CARVER ALUMNI ASSOCIATION,285 N Monastery Ave Baltimore MD 21229,39.289740000000002,-76.673894000000004,"813410",DAVIES,CARL,DION
WONDER ENTERPRISES,565 N Bentalou St Baltimore MD 21223,39.294516999999999,-76.653056000000007,"424990",MORONTA,ROGER,NULL
NEW UNION BAPTIST CHURCH,1974 Eagle St Baltimore MD 21223,39.281213999999999,-76.647184999999993,"813110",DUNN,ROLAND,NULL
H MOSLEY,568 N Fulton Ave Baltimore MD 21223,39.294783000000002,-76.645765999999995,"561740",PACE,THELMA,NULL
L B S W LLC,2226 W Lexington St Baltimore MD 21223 USA,39.290571999999997,-76.652467999999999,"999990",OLMSTED,DAVID,NULL
C DAY MANAGEMENT SERVICES (NOT INC),505 N Payson St Baltimore MD 21223,39.293928999999999,-76.648787999999996,"999990",WARRINGTON,VIRGINIA,ASHLEY
UNIVERSITY OF MARYLAND,3341 W Baltimore St Baltimore MD 21229,39.285532000000003,-76.672625999999994,"611310",HOWELL,ROOSEVELT,VICTOR
CATONSVILLE MIDDLE SCHOOL,572 N Bentalou St Baltimore MD 21223,39.294573000000000,-76.653488999999993,"611110",FREED,KATHERINE,CONCEPCION
MCCRAY BODY SHOP,1717 Frederick Ave Baltimore MD 21223,39.287635999999999,-76.643908999999994,"453998",KOHAN,MILDRED,LINDSAY
JKMK LLC,1808 W Baltimore St Baltimore MD 21223,39.288437000000002,-76.645516999999998,"999990",FLORES,CEDRIC,EDWARD
FOMUKONGS INSURANCE GROUP AND SERVICES INC,111 S Morley St Baltimore MD 21229,39.284775000000003,-76.675893000000002,"541990",ZEIDERS,ANN,KRYSTAL
J AND C,247 Harmison St Baltimore MD 21223,39.284630000000000,-76.649033000000003,"722513",STAHL,FAYE,GLORIA
WOMEN AFFAIRS OF AL MUMTAHINAH HOME INC,357 S Pulaski St Baltimore MD 21223,39.283285999999997,-76.649591000000001,"561990",PARRISH,PAUL,NULL
PLAYHOUSE,860 N Brice St Baltimore MD 21217,39.298180000000002,-76.650092999999998,"624410",HOLME,WILLIAM,JOHN
STUDIO 61 HAIR SALON,57 S Kossuth St Baltimore MD 21229,39.285930999999998,-76.675595999999999,"812112",MORALES,RYAN,NATHAN
"PREMIER REDEVELOPMENT GROUP, LLC",162 S Bruce St Baltimore MD 21223,39.285424999999996,-76.644498999999996,"561990",PINKHAM,ELLA,CAROLYN
MJ FOOD MARKET,3718 Old Frederick Rd Baltimore MD 21229,39.283777999999998,-76.678228000000004,"445110",WALSTON,WAYNE,KEITH
MARY SUE CANDIES,751 S Caton Ave Baltimore MD 21229,39.276026000000002,-76.670570999999995,"424490",LAWRENCE,JOHN,ALEXANDER
ART STAUB STUDIO,1705 Edmondson Ave Baltimore MD 21223 USA,39.295068999999998,-76.644409999999993,"453998",MATHIS,SETH,MITCHELL
BROOKS ENTERPRISE LLC,157 S Bruce St Baltimore MD 21223,39.285474999999998,-76.644102000000004,"722511",CORDOBA,EVELYN,NULL
ELYSIUM ASSOCIATES,3641 Gelston Dr Baltimore MD 21229,39.296380999999997,-76.677406000000005,"541611",RUSSELL,DANNY,LAWRENCE
THE PRODIGY GROUP INC,1645 W Lombard St Baltimore MD 21223,39.286163999999999,-76.642872999999994,"541611",CHRISTIE,MICHELLE,STELLA
VIP THERAPY SERVICES LLC,2233 Penrose Ave Baltimore MD 21223,39.290948999999998,-76.652079000000001,"541990",SCHEMBRI,BARBARA,TAMMY
"UNITED HOLDINGS CO, INC",991 Millington Ave Baltimore MD 21223,39.278013999999999,-76.655232999999996,"551112",BARTSCH,JAMES,LOUIS
TOLA SERVICES LLC,114 S Monroe St Baltimore MD 21223,39.285812999999997,-76.646963000000000,"623990",SCHULTE,VALERIE,NULL
SEMARJ TOWING INC,2771 Wilkens Ave Baltimore MD 21223,39.276155000000003,-76.660467999999995,"811198",ANGE,ARTHUR,DONALD
A X ENGINEERS,1618 Lemmon St Baltimore MD 21223,39.285901000000003,-76.642466999999996,"236220",MAULT,REBECCA,LISA
LARRY H BANK DDS,141 Ackworth St Baltimore MD 21223,39.285319000000001,-76.650349000000006,"621210",LEDGERWOOD,DARIUS,NULL
MALIK SALAAN CONTRACTORS,2107 W Mulberry St Baltimore MD 21223,39.292639000000001,-76.650927999999993,"238990",MANUEL,DAVID,NULL
J.T. CONNECTED LLC,936 N Fulton Ave Baltimore MD 21217,39.299171999999999,-76.646052999999995,"999990",DEWHIRST,PEGGY,JESSICA
ACE HAULING LLC,1018 N Rosedale St Baltimore MD 21216,39.299518999999997,-76.668154999999999,"484110",RUEGER,STEVEN,SHAWN
KINGDOM MINISTRIES,2579 Lauretta Ave Baltimore MD 21223,39.293742999999999,-76.658930999999995,"813110",DEASON,CHERRY,LORI
EDMORE PAINT & HARDWARE,574 Doswell Ave Baltimore MD 21223,39.294429999999998,-76.658043000000006,"444130",ZACHARIAH,DONNY,SAMUEL
INTEL SOLUTIONS CONSULTING,3718 Old Frederick Rd Baltimore MD 21229,39.283777999999998,-76.678228000000004,"541690",GOYER,CARLOS,NULL
SCHULZE PROPERTIES L.L.C.,3081 Stafford St Baltimore MD 21223,39.279099000000002,-76.667985999999999,"531312",BOYCE,LORRAINE,NONA
FLAT ROCK BAPTIST CHURCH,370 N Mount St Baltimore MD 21223,39.292737000000002,-76.644219000000007,"813110",BESWICK,KATHRYN,NULL
ROSIES BAR,2312 Ashton St Baltimore MD 21223,39.281520999999998,-76.652730000000005,"722410",PRINCE,MARIA,NULL
7-ELEVEN,3352 W Baltimore St Baltimore MD 21229,39.286012999999997,-76.672746000000004,"445120",JONES,JENNIFER,NULL
WARWICK TIRE SERVICES,11 N Warwick Ave Baltimore MD 21223,39.288105999999999,-76.655405000000002,"441320",SMITH,DIANNA,NULL
TINY ANGELS,862 Appleton St Baltimore MD 21217,39.298259000000002,-76.648546999999994,"624410",DUENAS,LORI,JENE
DAY CLEANING SERVICES,519 Parksley Ave Baltimore MD 21223 USA,39.278385000000000,-76.665431999999996,"561790",SANCHEZ,LADONNA,NULL
CONSOLIDATED FURNITURE SERVICES INC,63 S Franklintown Rd Baltimore MD 21223,39.287250999999998,-76.658496000000000,"238130",HOLTER,MERLE,NULL
ARNSDORF RALPH L 410,2421 Frederick Ave Baltimore MD 21223,39.282389999999999,-76.655287000000001,"999990",ROCHE,CHARLES,JARVIS
BON SCURS HM HEALTHAND HOSPISE,24 N Fulton Ave Baltimore MD 21223 USA,39.288874000000000,-76.645550999999998,"621610",GILL,FRANCESCO,NULL
UNITED CHURCH OF DELIVERENCE,3114 Frederick Ave Baltimore MD 21229,39.280526000000002,-76.668533999999994,"813110",LISAK,CARLENE,VIRGINIA
GOOD PENNY,3209 Kingsley St Baltimore MD 21229,39.278587999999999,-76.670137999999994,"452990",SULLIVAN,JEREMY,ADAM
MCNEELY PAINTING,3086 Harlem Ave Baltimore MD 21216,39.295876000000000,-76.668218999999993,"238320",PRADHAN,JOAN,KAREN
COUNCIL ALLENDALE TENANT,3605 Edmondson Ave Baltimore MD 21229,39.293686999999998,-76.677242000000007,"624190",PEDEN,TONYA,NULL
"YONG, FENG COMPANY",2688 Wilkens Ave Baltimore MD 21223,39.278345000000002,-76.658477000000005,"999990",ELLIS,SARAH,BONITA
MARYLAND PHARMACISTS ASSOCIATION,1000 S Monroe St Baltimore MD 21230,39.276094000000001,-76.644609000000003,"813920",CUMMINS,WILLIE,JAMES
CHERRY HILL TOWING,200 N Warwick Ave Baltimore MD 21223 USA,39.290520999999998,-76.656279999999995,"488410",LEAHY,CORA,LAURIE
Q AND A CONSULTING SERVIC,2556 Arunah Ave Baltimore MD 21216 USA,39.295594999999999,-76.658973000000003,"541990",BURCHETTE,JEFFERY,NULL
"ARCTIC REFRIGERATION, INC.",1094 S Dukeland St Baltimore MD 21223,39.274644000000002,-76.662025999999997,"493110",BROWN,SHARRON,NULL
HAIR STYLES BY TONI,643 Appleton St Baltimore MD 21217,39.295661000000003,-76.648014000000003,"812112",PETRO,ROOSEVELT,LARRY
J & J'S BAR & LIQUOR,1811 Ramsay St Baltimore MD 21223 USA,39.283031000000001,-76.645244000000005,"445310",BELL,ANDRE,PETER
TRIDENT SECURITY TRAINING LLC,772 N Payson St Baltimore MD 21217,39.297324000000003,-76.649366000000001,"561612",WHITE,JENNIFER,NULL
CHARM CITY CHURCH,2009 Frederick Ave Baltimore MD 21223,39.286000000000001,-76.648820999999998,"813110",BUCKELEW,ISABELL,NULL
BENJAMIN F SENKUS PAINTING,220 S Vincent St Baltimore MD 21223,39.284753000000002,-76.643005000000002,"238320",MCGRAW,STUART,NULL
FOXGLOVE EVENTS,289 N Franklintown Rd Baltimore MD 21223,39.290756999999999,-76.660432999999998,"541410",DOMBROSKI,MARY,STEPHNIE
"CORDLE JR, ARVIL",3211 Strickland St Baltimore MD 21229,39.277450000000002,-76.670122000000006,"561499",NIX,ROBERT,NULL
WAYLAND VLG SENIOR APARTMENTS,24 N Fulton Ave Baltimore MD 21223 USA,39.288874000000000,-76.645550999999998,"531210",CAHILL,JOHN,STANLEY
CD FELLOWS HOUSING LLC,143 Wheeler Ave Baltimore MD 21223,39.289682999999997,-76.654256000000004,"999990",GRECO,BRIGITTE,KATHY
THE PEOPLE PROGRAM INC,24 N Fulton Ave Baltimore MD 21223 USA,39.288874000000000,-76.645550999999998,"999990",MOENCH,CAROL,NULL
BERNICE LATOU ATTY,1726 Boyd St Baltimore MD 21223,39.286909999999999,-76.643900000000002,"541110",SHOWERS,MICHAEL,NULL
UNDERGROUND NAIL QUEENZ. LLC,2568 W Lanvale St Baltimore MD 21216,39.297072999999997,-76.657515000000004,"812113",SCHULZ,BRIAN,NULL
WILKENS AVE MENNONITE CHURCH,377 S Mount St Baltimore MD 21223,39.283495000000002,-76.643322999999995,"813110",ALTHAUS,SHERELL,NULL
COASTLINE TOURS,105 S Franklintown Rd Baltimore MD 21223,39.286292000000003,-76.658223000000007,"485510",NELMS,ROSE,NULL
"ALB ENTERPRISES, LLC",2935 Benson Ave Baltimore MD 21223,39.274746999999998,-76.663940999999994,"453998",MASTERMAN,ROBERT,NULL
HAMILTON ASSOCIATES LLC,176 N Kossuth St Baltimore MD 21229,39.288806000000001,-76.672723000000005,"999990",GONZALEZ,ALFRED,NULL
YASIN INC,2023 Lemmon St Baltimore MD 21223,39.285480999999997,-76.648668999999998,"445110",FRANCA,MARC,WILLIAM
FOOD DEPOT,2421 Frederick Ave Baltimore MD 21223,39.282389999999999,-76.655287000000001,"445120",BODKINS,MELVA,EVANGELINA
GRUNER'S LIQUOR & FOOR MARKET,125 N Monastery Ave Baltimore MD 21229,39.288238999999997,-76.675810999999996,"445310",PARSONS,MICHAEL,NULL
M & M TIRE DISTRIBUTORS LLC,2125 W Pratt St Baltimore MD 21223 USA,39.284714999999998,-76.650896000000003,"441320",BLANKENSHIP,NICOLE,PAMELA
"CEDAR PROPERTIES, LLC",2417 W Lanvale St Baltimore MD 21216 USA,39.296760999999996,-76.655705999999995,"531312",GITTINS,HOLLY,ALICE
"A NU YOU SALON & SPA, LLC",238 Harmison St Baltimore MD 21223,39.284689999999998,-76.649315000000001,"713940",PERKINS,JONATHON,NULL
SIMBO SMART FOOD LLC,220 S Pulaski St Baltimore MD 21223,39.284812000000002,-76.650026999999994,"445110",CUSTER,GEORGE,NULL
CORNISH CONTRACTORS,122 Allendale St Baltimore MD 21229,39.289966000000000,-76.678405999999995,"236115",HUNTER,MARY,NULL
RICE & NOODLE CORPORATION,428 S Addison St Baltimore MD 21223,39.282485999999999,-76.646013999999994,"311824",DIXON,JUSTIN,NULL
PIZZA KINGS,1905 Dover St Baltimore MD 21223,39.284590000000001,-76.646872000000002,"722513",RIZER,ELIZABETH,IRENE
TRAVEL SAVVY,934 N Warwick Ave Baltimore MD 21216,39.298766999999998,-76.656875999999997,"561510",WELCH,DAVID,NULL
YUMMY'S CARRYOUT,2835 Edmondson Ave Baltimore MD 21223,39.294088000000002,-76.663843000000000,"722511",WRIGHT,GREGORY,NULL
DIMENSIONAL RIFTS PRODUCTIONS,772 N Grantley St Baltimore MD 21229,39.297033999999996,-76.675923999999995,"512120",APRIL,RUBI,NULL
CHRISTIAN DAY CARE CENTER,3113 Phelps Ln Baltimore MD 21229,39.287993999999998,-76.669939999999997,"624410",KISER,AMANDA,VERONICA
"UNITED IRON & METAL, LLC",909 Millington Ave Baltimore MD 21223,39.277073999999999,-76.655576999999994,"423830",RANUM,SHAWN,NULL
5 STAR HOME & CONSTRUCTION SERVICES LLC,544 Denison St Baltimore MD 21229,39.293318999999997,-76.674301999999997,"236115",VANCE,BLAKE,NULL
"UNIVERSITY OF MARYLAND, BALTIMORE COUNTY",3192 Wilkens Ave Baltimore MD 21223,39.275103999999999,-76.668163000000007,"611310",SHUMATE,JOHNNY,JOHN
ALL SHAPES AUTO BODY & REPAIR LLC,3337 Frederick Ave Baltimore MD 21229,39.280624000000003,-76.673063999999997,"811412",MARTIN,DEBORAH,NULL
RENT-A-CENTER,2421 Frederick Ave Baltimore MD 21223,39.282389999999999,-76.655287000000001,"532210",SCHWARTZ,RICHARD,NULL
NEW BETHEL BIBLE CHURCH,705 Poplar Grove St Baltimore MD 21216,39.295833000000002,-76.664681999999999,"813110",BURGESS,SHERIE,ERIN
H. ALEXANDER ENTERPRISE LLC,8 S Payson St Baltimore MD 21223,39.287574999999997,-76.648841000000004,"561499",PARKER,ROSALIE,BETTY
ARTIS PROPERTY ACQUSTION LLC,15 N Bernice Ave Baltimore MD 21229 USA,39.286414999999998,-76.669539000000000,"523910",SHANNON,CARA,FELICIA
CONNIE KITCHEN,1842 Harlem Ave Baltimore MD 21217,39.296565999999999,-76.646749999999997,"999990",NORTH,BETTY,RENA
NEW COLUMBIA CONSTRUCTION,633 N Bentalou St Baltimore MD 21216,39.296174999999998,-76.652912000000001,"236115",FIRESTONE,NANCY,NULL
VERNON YELLOWBY,1802 W Franklin St Baltimore MD 21223 USA,39.294021999999998,-76.646049000000005,"999990",HURD,ERIC,NULL
B AND S FOOD MARKET,859 McKean Ave Baltimore MD 21217,39.298293999999999,-76.646563999999998,"445110",SEXTON,HEATHER,DONNA
ALPHA CONSTRUCTION AND ENGINEERING CORPORATION,1000 S Monroe St Baltimore MD 21230,39.276094000000001,-76.644609000000003,"541330",WELCH,RICKY,ANTHONY
JAMES A CHRISTIAN,715 Braddish Ave Baltimore MD 21216,39.295577000000002,-76.659291999999994,"999990",ISOM,EUNICE,NULL
"GREEN, MAKEBA",3619 W Lexington St Baltimore MD 21229,39.290075999999999,-76.677448999999996,"923110",REMY,LINDA,BERNADETTE
HENSON PROPERTY MANAGEMENT,408 S Pulaski St Baltimore MD 21223,39.282747999999998,-76.649963000000000,"561110",JONES,MIRIAN,CAROL
W W AUTO BODY,362 S Dukeland St Baltimore MD 21223,39.280234000000000,-76.662655000000001,"811121",DIAZ,HAYWOOD,NULL
"PRICE BUSTERS OF BALTIMORE, INC.",289 N Franklintown Rd Baltimore MD 21223,39.290756999999999,-76.660432999999998,"442110",LOVETT,BARBARA,NULL
LRMR CO INC,306 S Franklintown Rd Baltimore MD 21223,39.283599000000002,-76.657804999999996,"531210",TAYLOR,GREGORY,MARK
OVERFLOW MOBILE NOTARY SERVICE,3409 W Franklin St Baltimore MD 21229,39.292596000000003,-76.674794000000006,"541120",ARANA,JOSE,NULL
BEST USED APPLIANCES,2150 Edmondson Ave Baltimore MD 21223,39.295662999999998,-76.651396000000005,"443141",EVANS,KYLE,NULL
PERCY W JONES,3219 W Baltimore St Baltimore MD 21229,39.285704000000003,-76.671319999999994,"812111",YOUNG,ROBERT,CARL
"BON SECOURS HEALTH SYSTEM, INC",2230 W Baltimore St Baltimore MD 21223,39.288086999999997,-76.652379999999994,"623312",RYDER,RYAN,NULL
IRIS KUTCH,3065 W Baltimore St Baltimore MD 21229,39.285753000000000,-76.669925000000006,"999990",TRIVETT,ANTONIO,NULL
HILLTON CARRYOUT,3341 W Baltimore St Baltimore MD 21229,39.285532000000003,-76.672625999999994,"722513",ALTAMURA,PATRICIA,SUE
A & E CAR WASH,2912 W Lafayette Ave Baltimore MD 21216,39.298149000000002,-76.665362000000002,"811192",GALLEGOS,DEBORAH,NULL
PLANET AUTO SALES,3008 Wilkens Ave Baltimore MD 21223 USA,39.276085999999999,-76.665654000000004,"812112",JONES,ROSS,NULL
METRO DELI,346 S Payson St Baltimore MD 21223,39.283372999999997,-76.648601999999997,"722513",NICKELL,BARBARA,JAN
CREATIVE CUTS,402 N Franklintown Rd Baltimore MD 21223 USA,39.292842000000000,-76.662471999999994,"812111",HATHORNE,AUGUSTUS,NULL
AMOCO,938 N Monroe St Baltimore MD 21217,39.299126999999999,-76.647740999999996,"447190",BAKER,ROGER,CHARLES
"A B C ROOFERS, INC",283 S Hilton St Baltimore MD 21229,39.281458999999998,-76.671835000000002,"238160",NGUYEN,ELTON,DAVID
"HICKS HOUSING & INVESTMENTS, LLC",63 S Franklintown Rd Baltimore MD 21223,39.287250999999998,-76.658496000000000,"523910",RICHMOND,DAVID,HOWARD
SOLARTEC ENT,112 Allendale St Baltimore MD 21229,39.289614000000000,-76.678387000000001,"561499",RICHTER,MARY,SADYE
TAYS ENTERTAINMENT & MGT AGCY,2310 W Fayette St Baltimore MD 21223,39.289416000000003,-76.653283000000002,"711190",RICHARDS,MARIE,COLLENE
SUPREME HIGHLIGHTS MINISTRIES INC,2031 W Lafayette Ave Baltimore MD 21217,39.298437999999997,-76.650350000000003,"813110",MASSEY,RUTH,MONA
"BROCTON PROPERTIES, LLC",247 Harmison St Baltimore MD 21223,39.284630000000000,-76.649033000000003,"531312",GONZALES,ANNIE,NULL
PETE'S AUTO,2771 Wilkens Ave Baltimore MD 21223,39.276155000000003,-76.660467999999995,"811111",SCHAEFER,ROGER,NULL
PENTECOSTAL UNITED HOLY CHURCH,128 S Fulton Ave Baltimore MD 21223,39.285939999999997,-76.645335000000003,"813110",JONES,LAWRENCE,NULL
INTERNATIONAL NUTRITION INC,1713 Edmondson Ave Baltimore MD 21223,39.295076999999999,-76.644632999999999,"446191",LOPEZ,GLORIA,NULL
WOMEN AFFAIRS OF AMH INC,357 S Pulaski St Baltimore MD 21223,39.283285999999997,-76.649591000000001,"999990",SIMONS,JOSE,RAUL
ROSEDALE GROCERY,2507 Edmondson Ave Baltimore MD 21223 USA,39.294483000000000,-76.656574000000006,"445110",RUMPF,ROBERT,NULL
GAMESTOP,2421 Frederick Ave Baltimore MD 21223,39.282389999999999,-76.655287000000001,"451120",KUBICEK,SANDY,MARIA
"ABRAHAM, INC.",1811 Ramsay St Baltimore MD 21223 USA,39.283031000000001,-76.645244000000005,"999990",STEURER,SCOTT,NULL
SAINT BERNARDINE'S SUNDAY SCHO,633 Mt Holly St Baltimore MD 21229,39.294339999999998,-76.679585000000003,"624110",CAIN,MARION,DEBBIE
KIM S GROCERY STORE,402 S Payson St Baltimore MD 21223 USA,39.282615000000000,-76.648523999999995,"445110",LEWIS,LUCILLE,LORRAINE
BJSE INC,2835 Edmondson Ave Baltimore MD 21223,39.294088000000002,-76.663843000000000,"999990",DON,JONATHAN,HOMER
"COOMBS, LORIAN",1562 W Baltimore St Baltimore MD 21223,39.288659000000003,-76.641869999999997,"445120",CAIN,FRANCISCA,NULL
DONALD D DWYNN,2678 Lehman St Baltimore MD 21223,39.280512999999999,-76.658401999999995,"811111",THORNTON,JAMES,NULL
CITY WIDE APPLIANCE & RFRGN,219 Ackworth St Baltimore MD 21223,39.284830999999997,-76.650409999999994,"811412",CASTAGNA,AMELIA,TERRI
A P PARKS CUSTOM CARPENTRY,910 Wilmington Ave Baltimore MD 21223,39.274932000000000,-76.667030999999994,"238130",PAREKH,RICHARD,NULL
TOM'S CABINET,2192 Boyd St Baltimore MD 21223,39.286530999999997,-76.651455999999996,"238350",VELASQUEZ,APRIL,MARY
SILOAM FREEWILL BAPTIST CHURCH,1782 W Franklin St Baltimore MD 21223,39.294032000000001,-76.645241999999996,"813110",POTTS,PAUL,DARWIN
FREEMAN COMPUTER SOLUTION,2331 W Mosher St Baltimore MD 21216,39.299486000000002,-76.653780999999995,"443142",HERNANDEZ,LOIS,KRISTEN
WESTSIDE CLEANERS,2421 Frederick Ave Baltimore MD 21223,39.282389999999999,-76.655287000000001,"812320",MORGAN,MICHAEL,NULL
"WARWICK AVENUE PARTNERSHIP, LLP",141 Landwehr Ln Baltimore MD 21223,39.285212000000001,-76.653293000000005,"531312",MORAN,EDWARD,NULL
GREEN'S ACE HARDWARE,882 N Monroe St Baltimore MD 21217,39.298527000000000,-76.647688000000002,"444130",KOSIK,DARRYL,MIKE
BENTALOU FOOD & MEAT MARKET,1008 N Bentalou St Baltimore MD 21216,39.299889000000000,-76.653782000000007,"445110",CLONCH,KENNETH,TIMOTHY
THE H M ROWE CO INC,1579 Edmondson Ave Baltimore MD 21223,39.295124000000001,-76.642450999999994,"511130",SILL,LEANNE,ELIZABETH
SPIRITS & MORE,1985 W Saratoga St Baltimore MD 21223,39.291842000000003,-76.648625999999993,"445310",ROBERTS,ZELMA,CHRISTINE
PITTBULL CUSTOMIZING,3855 W Franklin St Baltimore MD 21229,39.292220999999998,-76.680080000000004,"999990",CALDWELL,RUBY,LUCY
METRO DIRECT,45 N Monastery Ave Baltimore MD 21229,39.287230000000001,-76.677097000000003,"999990",RUBINO,EVANGELINA,JUDITH
JUST FOR YOU,2547 Harlem Ave Baltimore MD 21216,39.295991000000001,-76.657124999999994,"424990",THOMPSON,TIMOTHY,MAJORIE
DEPARTMENT OF SOCIAL SERVICES,3743 W Mulberry St Baltimore MD 21229,39.291567999999998,-76.678781999999998,"923130",HANSEL,ROLAND,NULL
K.A.V. CORP.,331 Furrow St Baltimore MD 21223,39.283709000000002,-76.651768000000004,"624120",MAYHEW,BEATRIZ,NULL
COMMERCIAL ROOFING,3178 Wilkens Ave Baltimore MD 21223,39.275191999999997,-76.667912999999999,"238160",NEMETH,CHARLES,MICHAEL
SONDE'S UNPAC-PACKING SERVICE,2350 Arunah Ave Baltimore MD 21216,39.295765000000003,-76.654070000000004,"561499",FORD,HENRY,NULL
HG INFUSION INC.,1705 Edmondson Ave Baltimore MD 21223 USA,39.295068999999998,-76.644409999999993,"999990",HELMER,KEITH,FRANK
DIRTY 8 ENTERTAINMENT,2470 Calverton Heights Ave Baltimore MD 21216,39.297854000000001,-76.656045000000006,"711510",BROGDEN,ETHEL,SARA
DNR LEGAL SERVICES,3735 Colborne Rd Baltimore MD 21229,39.297781000000001,-76.679070999999993,"541199",GROSSBERG,RICHARD,DAVID
UPTOWN SPORTSMAN CLUB,2249 W Baltimore St Baltimore MD 21223,39.287747000000003,-76.652653000000001,"713940",CALCAGNO,STEPHEN,DONALD
S.A.M. SUPERIOR AUTO MAKE-OVER CAR WASH & DETAILING L.L.C.,1981 Lemmon St Baltimore MD 21223,39.285494999999997,-76.648349999999994,"453998",DEWEY,LEE,NULL
CARROLL PARK GOLF COURSE,2010 Washington Blvd Baltimore MD 21230,39.275537999999997,-76.648312000000004,"561110",STEVERSON,JOHN,VANCE
BILL S ICE CREAM AND HOT DOGS,2941 Stafford St Baltimore MD 21223,39.278846999999999,-76.665869000000001,"453998",AUSTIN,GLADYS,KRISTA
RAW ENTERTAINMENT,1668 Hollins St Baltimore MD 21223,39.287585000000000,-76.643310999999997,"711190",SORKIN,HOLLY,JEANNE
U S FUGITIVE APPREHENSION UNIT LLC (NOT LLC),317 N Gilmor St Baltimore MD 21223,39.292268000000000,-76.642410999999996,"999990",MINGUS,GEORGE,NULL
CHERRY HILL TOWING AND HAULING SERVICE,1849 Frederick Ave Baltimore MD 21223,39.286825999999998,-76.646260999999996,"488410",DEMPSTER,JUDITH,NULL
DAMACH AUTOMOTIVE INC,520 S Addison St Baltimore MD 21223,39.281858000000000,-76.645822999999993,"811111",TEARE,GREGORY,NULL
THE SONS OF HARMONY,907 N Bentalou St Baltimore MD 21216 USA,39.298833000000002,-76.653201999999993,"512240",CLARK,JIMMIE,FRANK
FORTUNE WINDOWS CORPORATION,612 S Caton Ave Baltimore MD 21229,39.277188000000002,-76.671864999999997,"332321",CLOUATRE,MARY,GAIL
"EXQUISITE CATERED EVENTS, INC",1773 W Lexington St Baltimore MD 21223,39.290464999999998,-76.645079999999993,"722320",REITZ,KELLY,WILLIAM
ALEXANDER HAMILTON ELEMENTARY SCHOOL,2952 W Lafayette Ave Baltimore MD 21216,39.298195000000000,-76.666111000000001,"611110",KOETJE,WAYNE,JAMES
IMANICRAFTS,2883 W Lafayette Ave Baltimore MD 21216,39.297919999999998,-76.664756999999994,"451120",LAURINO,TONY,JOHN
A NEW FAITH COMMUNITY MINISTRIES,219 S Mount St Baltimore MD 21223,39.285133999999999,-76.643448000000006,"813110",BUSH,MARY,NULL
MUJIN GAO,622 N Dukeland St Baltimore MD 21216,39.294691999999998,-76.663199000000006,"999990",KRIEG,GENE,NULL
R & B GROVE CABINETRY,321 S Bruce St Baltimore MD 21223,39.284101000000000,-76.643992999999995,"337110",LESTER,AMY,CHERYL
C & B CONTRACTORS,3526 Old Frederick Rd Baltimore MD 21229 USA,39.283186000000001,-76.675858000000005,"236115",TEACHOUT,JOHN,NULL
"HALL MIT HOLDINGS, LLC",2952 Kingsley St Baltimore MD 21223,39.278309999999998,-76.665025000000000,"551112",CHAFFEE,GORDON,NULL
NAILS SPA,2432 Frederick Ave Baltimore MD 21223,39.284134000000002,-76.655089000000004,"812113",REID,GENE,RICHARD
GLOBAL VENDING LLC,663 N Fulton Ave Baltimore MD 21217,39.295988000000001,-76.645343999999994,"454210",HIGHAM,CYNTHIA,MONICA
USA FINANCIAL FUNDING,2044 W Lexington St Baltimore MD 21223,39.290649000000002,-76.649431000000007,"541611",PAGLIARULO,ESTHER,IRENE
FRED LIQUIOD,826 N Payson St Baltimore MD 21217,39.297811000000003,-76.649398000000005,"445310",DENNEY,ADRIENNE,ZENIA
FUTURE LEADERS FOUNDATION INC,157 S Bruce St Baltimore MD 21223,39.285474999999998,-76.644102000000004,"624410",PORTER,PERCY,NULL
SUPREME KATZ,938 N Monroe St Baltimore MD 21217,39.299126999999999,-76.647740999999996,"999990",BURKE,JAMES,NULL
ROOTS UNLIMITED,2152 Vine St Baltimore MD 21223,39.290013999999999,-76.650920999999997,"722410",OCONNELL,HENRY,NULL
LOUIS R EAST,459 S Gilmor St Baltimore MD 21223,39.282643999999998,-76.641830999999996,"561990",GARCIA,KATHYRN,NULL
CLEARGOL TECHNOLOGIES,211 S Pulaski St Baltimore MD 21223,39.284835000000001,-76.649687999999998,"999990",HUERTA,MICHAEL,HERMAN
UPPER ROOM OUTREACH MINISTRIES,3518 Frederick Ave Baltimore MD 21229,39.281804999999999,-76.675381000000002,"316998",RHODES,ROBERT,NULL
BUREAU OF CONSULAR AFFAIRS,432 S Catherine St Baltimore MD 21223,39.280546000000001,-76.654279000000002,"921190",GELIN,WILLIAM,NULL
CORRINE S CHILDCARE SERVICE,2320 Harlem Ave Baltimore MD 21216 USA,39.296470999999997,-76.654364999999999,"541990",DELBRIDGE,SUSAN,NULL
CYNTHIA R TENSLEY,2042 Ramsay St Baltimore MD 21223,39.283194000000002,-76.648983999999999,"334515",ESCOBEDO,LORI,SHARON
STEVE S VINTAGE COLLECTIBLE,2557 W Mosher St Baltimore MD 21216,39.299273999999997,-76.657450999999995,"453998",ROSALES,WILLIAM,CHARLES
"SVEHLA, PATRICK J CPA",1747 Edmondson Ave Baltimore MD 21223,39.295071999999998,-76.644801000000001,"541219",KEPPLER,IGNACIO,NULL
NIHAN & MARTIN LLC,1000 S Monroe St Baltimore MD 21230,39.276094000000001,-76.644609000000003,"446110",MOUA,MABLE,NULL
THOMAS AND WILLIAMS RECYCLING LLC,1814 W Lexington St Baltimore MD 21223,39.290802999999997,-76.645583000000002,"562920",PELLEGRINI,BONNIE,NULL
MARMELS INC,2266 W Lanvale St Baltimore MD 21216,39.297159999999998,-76.653063000000003,"445110",ROGERS,JOHN,DANIEL
SKY SHA CONTRACTING LLC,1928 Hollins St Baltimore MD 21223,39.287306000000001,-76.647372000000004,"238990",TAYLOR,GENE,NULL
5 FINGERS ENTERPRISES INC,233 S Hilton St Baltimore MD 21229,39.282497999999997,-76.671829000000002,"541611",KINDER,STEVEN,NULL
L & R MANAGEMENT LLC,806 N Fulton Ave Baltimore MD 21217 USA,39.297877000000000,-76.645983999999999,"561110",FLAMM,BETTY,NULL
DISCOUNT CYCLE INC.,2140 W Saratoga St Baltimore MD 21223,39.292023999999998,-76.650852000000000,"453998",NGUYEN,NICOLE,NULL
PRIMO 20 20,2884 Edmondson Ave Baltimore MD 21223,39.294629999999998,-76.664630000000002,"722513",SLATER,WILLIAM,FRANK
FUTURE CARE,214 S Mt Olivet Ln Baltimore MD 21229,39.283194999999999,-76.668282000000005,"561990",SANANTONIO,LORI,JACQUELYN
CATON CARRY OUT,45 N Monastery Ave Baltimore MD 21229,39.287666999999999,-76.676603000000000,"722513",KELLY,ENOLA,ELLEN
SUBWAY,3337 Frederick Ave Baltimore MD 21229,39.280624000000003,-76.673063999999997,"424490",PALOMO,RONALD,NULL
B AND M MOTORS INC,289 N Franklintown Rd Baltimore MD 21223,39.290756999999999,-76.660432999999998,"441228",SCHLAFER,MARJORIE,NULL
AG-1 LLC,3867 W Saratoga St Baltimore MD 21229,39.290495999999997,-76.680132999999998,"999990",COATS,ROBERT,NULL
HARBOR OF AMERICA INC,649 S Smallwood St Baltimore MD 21223,39.279764999999998,-76.649491999999995,"337127",WHITEHEAD,CHARLES,NULL
TAI WONG CARRY OUT,1613 Frederick Ave Baltimore MD 21223 USA,39.287908999999999,-76.642810999999995,"722513",DODSON,DARYL,NULL
ARUNDEL MAILING,668 S Smallwood St Baltimore MD 21223,39.279086999999997,-76.650172999999995,"541860",NELSON,JULIA,MIRA
LUCKY EXPRESS CARRYOUT,1836 W Pratt St Baltimore MD 21223 USA,39.285331999999997,-76.646281000000002,"722513",GRIGSBY,DONALD,JOHN
WILKENS VARIETY MARKET,415 S Fulton Ave Baltimore MD 21223,39.282966999999999,-76.644594999999995,"452990",HAMPTON,PHILLIP,JAMES
"EESCO PUMP AND VALVE, INC.",649 S Brice St Baltimore MD 21223,39.280287000000001,-76.647604999999999,"811219",MITCHUM,FABIAN,NULL
SWIM DREAMS AQUATIC SERVICES LLC,1602 Hollins St Baltimore MD 21223,39.287619999999997,-76.642553000000007,"541990",REDMOND,PAMELA,NULL
BENSON BUILDERS,500 S Longwood St Baltimore MD 21223 USA,39.278903999999997,-76.666736000000000,"236115",SOARES,RICHARD,NULL
CATON WILKENS MINI STORAGE,3258 Wilkens Ave Baltimore MD 21229,39.275140000000000,-76.670360000000002,"493190",REPKO,ANDREA,NULL
TWO FOR SOMETHING INC,127 Allendale St Baltimore MD 21229,39.289734000000003,-76.677901000000006,"441110",WHITELOCK,CLIFFORD,MIKE
E.A.C. EILECTRONICS INC.,2016 Vine St Baltimore MD 21223,39.290083000000003,-76.649000000000001,"423690",MINERD,QUINTON,DAVID
ELLAMONT BEAUTY SALON,3065 W Baltimore St Baltimore MD 21229,39.285753000000000,-76.669925000000006,"812112",REITZ,JANET,SARA
WATER QUALITY LOAN FINANCING,1000 S Monroe St Baltimore MD 21230,39.276094000000001,-76.644609000000003,"924110",BARUA,DAVID,CHRISTOPHER
BUTTERCUP CLEANING SERVICE LLC,2622 Dulany St Baltimore MD 21223,39.280284000000002,-76.657444999999996,"561790",MCCAULEY,NORA,ELEANOR
AVON,170 N Smallwood St Baltimore MD 21223,39.290213000000001,-76.651782999999995,"454390",LEVY,KIMBERLY,NULL
THE FOODIE & CO,2235 W Lexington St Baltimore MD 21223,39.290202999999998,-76.652086999999995,"999990",HODGDON,RONALD,JAMES
ACS SLS,1000 S Monroe St Baltimore MD 21230,39.276094000000001,-76.644609000000003,"561499",VITALE,BONNIE,NULL
SMART STEPS CHILDREN,1835 Arunah Ave Baltimore MD 21217,39.295662000000000,-76.646665999999996,"624410",ALVARENGA,THOMAS,NULL
BONOMOLO EQUIPMENT & SUPPLIES,2192 Boyd St Baltimore MD 21223,39.286530999999997,-76.651455999999996,"423830",HUFF,CHIQUITA,MIRANDA
"JHF CONSULTANTS, LLC",816 N Bentalou St Baltimore MD 21216 USA,39.297953000000000,-76.653667999999996,"541618",LEMON,RAYMOND,NULL
HOLLINS TERRACE,1847 W Baltimore St Baltimore MD 21223,39.287981000000002,-76.646210999999994,"446110",DOUGLAS,LILLIAN,PETRA
NARCOTICS ANONYMOUS BALTIMORE,251 N Warwick Ave Baltimore MD 21223,39.290975000000003,-76.655636000000001,"624190",ORTEGA,DAWN,NULL
SERENITY HAIR,2768 W Fairmount Ave Baltimore MD 21223,39.288609000000001,-76.660483999999997,"812112",BALLARD,REGINA,NULL
SANDTOWN VILLAGE CO-OPEATIVE,1780 W Lafayette Ave Baltimore MD 21217,39.298957000000001,-76.645516999999998,"237210",LILLICH,CARL,NULL
JCV ENTERPRISES,2555 W Lafayette Ave Baltimore MD 21216,39.298130000000000,-76.658366000000001,"517110",AUGUSTINE,EVERETT,ROBERT
DEE'S CREATIVE LOOK,1747 Edmondson Ave Baltimore MD 21223,39.295071999999998,-76.644801000000001,"812112",ARNETT,JUDITH,ANNELIESE
J & J CONVIENCE,2883 W Lafayette Ave Baltimore MD 21216,39.297919999999998,-76.664756999999994,"445120",SEARCY,SUSAN,JULIE
BOBBY'S CHICKEN,622 N Dukeland St Baltimore MD 21216,39.294691999999998,-76.663199000000006,"722513",JOHNSON,JASMINE,MARY
"CCZ ENTERPRISES, INC.",2111 W Pratt St Baltimore MD 21223,39.284835999999999,-76.650304000000006,"561499",TUMLIN,CEDRIC,MATHEW
CITY OF VICTORY DAYCARE,321 N Culver St Baltimore MD 21229,39.289451000000000,-76.673204999999996,"624410",WILLIAMSON,LEROY,NULL
"BRICK OVEN, INC.",330 N Warwick Ave Baltimore MD 21223 USA,39.292532000000001,-76.656952000000004,"999990",MANTER,FRANCIS,JOSEPH
FULTON AUTO SALES,204 S Fulton Ave Baltimore MD 21223,39.285069999999997,-76.645161999999999,"811121",ZEPEDA,MARIA,NULL
C AND L LAUNDROMAT INC,173 Goldsmith St Baltimore MD 21223,39.285294000000000,-76.647411000000005,"812310",WOODWARD,DALE,NULL
RECREATION IN PARKS,301 Denison St Baltimore MD 21229 USA,39.290619000000000,-76.674306999999999,"999990",DOYLE,MARGARET,JASMINE
CHARITY COMMUNITY CHURCH GOD,3189 Piquett Ln Baltimore MD 21229,39.281857000000002,-76.669860999999997,"813110",PATTERSON,JODY,NULL
HRC TRANSPORTATION,2521 W Baltimore St Baltimore MD 21223,39.287548000000001,-76.656920999999997,"488999",HENRIE,ALAN,AARON
FEROZE TRADING USA INC,2745 Edmondson Ave Baltimore MD 21223,39.294274000000001,-76.662609000000003,"424990",POTTORFF,JOSE,JOHN
LAFAYE & LISAS SHINING STAR CHILD CARE SERVICES,421 Parksley Ave Baltimore MD 21223,39.279680999999997,-76.665452999999999,"624410",BIBBS,BRITTNEY,NULL
CAMPBELL BROTHERS BAILBOND AGENCY,806 N Fulton Ave Baltimore MD 21217 USA,39.297877000000000,-76.645983999999999,"541990",CUNNINGHAM,LORI,MARILYN
A & J AFRICAN QUEEN HAIR BRAID,2111 W Pratt St Baltimore MD 21223,39.284835999999999,-76.650304000000006,"423710",ZEPEDA,KENNETH,NULL
DEFACEPAINTER AND FUN LLC,2945 W Lanvale St Baltimore MD 21216,39.296947000000003,-76.665912000000006,"238320",SURESH,GAIL,HESTER
"XYZ MANAGEMENT, INC.",524 Allendale St Baltimore MD 21229,39.292884000000001,-76.678554000000005,"999990",RICHARDS,RICHARD,ROBERT
KIDZ INN DAY CARE,3537 Gelston Dr Baltimore MD 21229,39.297590000000000,-76.675714999999997,"624410",CRAWFORD,MARISHA,MIRIAM
B&R CONSTRUCTION LLC,141 S Culver St Baltimore MD 21229,39.284430000000000,-76.678799999999995,"236115",DOMINGO,DAVID,NULL
PRAYING HANDS LLC,3428 W Saratoga St Baltimore MD 21229,39.290342000000003,-76.674092000000002,"999990",IBARRA,BRIAN,NULL
"BOWERS CONSULTANTS, LLC",3401 Edmondson Ave Baltimore MD 21229 USA,39.293796999999998,-76.674272000000002,"541618",LOWE,ANITA,LISA
"L & J WASTE RECYCLING, LLC",210 N Calverton Rd Baltimore MD 21223,39.290720000000000,-76.658728999999994,"561110",BENEDICT,JACKIE,NULL
FUGILL INVESTMENT GROUP LLC,3137 Stafford St Baltimore MD 21229,39.279235999999997,-76.668908000000002,"523910",JONES,JOYCE,HOLLY
HEART ASSOCIATES PA,2000 W Baltimore St Baltimore MD 21223,39.288570999999997,-76.649209999999997,"621111",MORRIS,MICHAEL,JESSE
JAMES MOSHER ELEMENTARY SCHOOL,982 Wheeler Ave Baltimore MD 21216,39.299357000000001,-76.655192999999997,"611110",BEER,CONNIE,NULL
EFFICIENT LIVING FOR SELF EMPO,505 N Monroe St Baltimore MD 21223,39.294246000000001,-76.647059999999996,"624110",KUNKA,ADRIA,NULL
C.L. MCCOY FRAMING COMPANY,2125 W Pratt St Baltimore MD 21223 USA,39.284714999999998,-76.650896000000003,"236115",CARPENTER,REED,NULL
ACME DELIVERY AND MESSENGER SERVICE INC,649 S Brice St Baltimore MD 21223,39.280287000000001,-76.647604999999999,"492110",CRAFT,HEIDI,NULL
J.O.W HOME IMPROVEMENT,715 Braddish Ave Baltimore MD 21216,39.295577000000002,-76.659291999999994,"236115",SHOOK,RUTH,NULL
SYZYGY CORPORATION,2672 W Fairmount Ave Baltimore MD 21223,39.288381000000001,-76.659069000000002,"238990",HERRERA,WILLIAM,HENRY
"BON SECOURS HEALTH SYSTEM, INC",2000 W Baltimore St Baltimore MD 21223,39.288570999999997,-76.649209999999997,"622110",SMITH,RODGER,NULL
HAZARDOUS WASTE PROGRAM,1000 S Monroe St Baltimore MD 21230,39.276094000000001,-76.644609000000003,"921190",BAKER,JOAN,NULL
MVA EXPRESS,480 Wellesley St Baltimore MD 21229,39.279451000000002,-76.668380999999997,"511199",STEWART,PAUL,NULL
TLC AUTOMOTIVE SERVICES,75 Benkert Ave Baltimore MD 21229,39.285684000000003,-76.673713000000006,"811111",PERROTT,RICHARD,NULL
MINI STORE ROSITA,2687 Wilkens Ave Baltimore MD 21223,39.277940999999998,-76.658304999999999,"445120",RIOS,GENESIS,FLORIDA
BUCK'S AUTO SERVICE,2186 W Lafayette Ave Baltimore MD 21217,39.298912000000001,-76.652294999999995,"811111",CERASOLI,MICHAL,DON
MILL END SHOPS,2916 Stafford St Baltimore MD 21223 USA,39.279058999999997,-76.665201999999994,"442291",WEISS,SANG,NULL
WENDY'S,2343 Frederick Ave Baltimore MD 21223,39.284218000000003,-76.653295000000000,"722513",BRINSON,JOSHUA,NULL
MARYLAND DEPARTMENT OF JUVENILE SERVICES,321 N Culver St Baltimore MD 21229,39.289451000000000,-76.673204999999996,"921190",LITHGOW,JOHN,JOHN
HARM CITY GUNNERS ENTERTAINMENT,3047 Harlem Ave Baltimore MD 21216,39.295619000000002,-76.667551000000003,"711510",TODD,HELEN,NULL
WHITELOCK AIR INC,256 S Gilmor St Baltimore MD 21223,39.284813000000000,-76.642369000000002,"238220",RINEHART,JAMES,NULL
PAKNPAK,1631 W Saratoga St Baltimore MD 21223,39.292006000000001,-76.642998000000006,"445310",PAK,VIVIENNE,NULL
BOK GROCERY,525 E Lynn Ave Baltimore MD 21223,39.279395999999998,-76.658251000000007,"445110",DAMATO,RUSSELL,MICHAEL
"J & M MANUFACTURING, INC.",211 S Pulaski St Baltimore MD 21223,39.284835000000001,-76.649687999999998,"313210",NORMAN,MARK,NULL
IMMEASURABLE CHICKEN & WAFFLES,157 S Bruce St Baltimore MD 21223,39.285474999999998,-76.644102000000004,"722511",COOPER,WILLIAM,NULL
MAYFLOWER TEXTILE SERVICES CO.,2617 W Lexington St Baltimore MD 21223,39.289279999999998,-76.658615999999995,"423220",MCCLAIN,SALLY,JANELLE
BIBLE WAY CHAPEL,232 Ackworth St Baltimore MD 21223,39.284683999999999,-76.650747999999993,"813110",AHO,JOHN,WILLIAM
WEST BALT MIDDLE CAFETERIA,111 S Kossuth St Baltimore MD 21229,39.285223999999999,-76.676606000000007,"722514",AGARD,MARK,NULL
INTERNATIONAL WHEELS UNLIMITED,2056 Frederick Ave Baltimore MD 21223,39.286110000000001,-76.649619000000001,"441310",LIECHTY,MELODY,LOIS
"JOSHUA MINISTRY BIBLE INSTITUTE, INC",32 S Monroe St Baltimore MD 21223,39.286951999999999,-76.647024000000002,"611699",WAHL,KEVIN,GARLAND
COGNATE THERAPEUTICS,3192 Wilkens Ave Baltimore MD 21223,39.275103999999999,-76.668163000000007,"621511",MCCAFFERTY,WILLIAM,NULL
THE CHURCH OF THE LIVING WORD APOSTOLIC,2133 Edmondson Ave Baltimore MD 21223,39.294851000000001,-76.650872000000007,"813110",ZARETSKY,FLOYD,PETE
T N T MANUFACTURING INC,432 S Caton Ave Baltimore MD 21229,39.279384000000000,-76.671948000000000,"332322",SELDEN,SUSIE,NULL
"WYLIE, ALBERT P FUNERAL HOME PA",668 N Gilmor St Baltimore MD 21217,39.296315999999997,-76.643044000000003,"812210",ECKART,CARLTON,NULL
SARDORO CONSTRUCTION,842 N Rosedale St Baltimore MD 21216,39.297454999999999,-76.668300000000002,"236115",STANLEY,JOHN,NULL
THE NEXT STAGE TRANSITIONAL HOUSING INC,511 S Brunswick St Baltimore MD 21223,39.278922000000001,-76.658942999999994,"624190",JORDAN,ERIC,NULL
LABORERS DST COUNCIL TRAINING,800 Desoto Rd Baltimore MD 21223 USA,39.275506000000000,-76.668944999999994,"541612",IMHOFF,NORMA,ELIZABETH
G AND A ELECTRICAL,362 S Dukeland St Baltimore MD 21223,39.280234000000000,-76.662655000000001,"238210",COZAD,CLAYTON,ERWIN
4 BROTHERS PRODUCTIONS,3213 Massachusetts Ave Baltimore MD 21229,39.283724999999997,-76.670567000000005,"512120",MCKINNEY,DAVID,LEMUEL
"MBC VENTURES, INC.",3200 Stafford St Baltimore MD 21229,39.279823999999998,-76.669944999999998,"339994",BARRY,MARY,DEBORAH
LOCK AND LOAD FREIGHT TRU,912 N Franklintown Rd Baltimore MD 21216,39.297499999999999,-76.667517000000004,"488999",FOGAL,ANTONIA,BRENDA
PBA ASSOCIATES,1883 W Lexington St Baltimore MD 21223,39.290380999999996,-76.646784999999994,"621420",CONNELLEY,KENNETH,NULL
"ZESKINDS HARDWARE, INC.",2030 McHenry St Baltimore MD 21223,39.284317999999999,-76.648875000000004,"444130",ANDERSON,ASHLEY,NULL
ALTERNATIVE BUSINESS CTR,124 S Kossuth St Baltimore MD 21229,39.285283000000000,-76.677153000000004,"999990",MCVEY,ALFRED,NULL
PAPPAS & ASSOC INC,3170 Stafford St Baltimore MD 21229,39.279780000000002,-76.669430000000006,"541611",VANALSTYNE,WENDY,NULL
THE CHURCH OF BIBLE TRUTH PRAYER AND DELIVERANCE INC,225 N Monroe St Baltimore MD 21223 USA,39.291145999999998,-76.646871000000004,"813110",AHERN,DESIREE,NULL
HARRY C DAVIS HOME IMPROVEMENTS,647 S Pulaski St Baltimore MD 21223,39.280078000000003,-76.648300000000006,"236118",CHRISTIAN,BOBBY,JEFF
CHEMICAL & BIOCHEMICAL ENGINEERING,3192 Wilkens Ave Baltimore MD 21223,39.275103999999999,-76.668163000000007,"621111",WALKER,MARGARET,ZONA
"ENES OUTLETS, LLC",330 N Warwick Ave Baltimore MD 21223 USA,39.292532000000001,-76.656952000000004,"442110",CROUCH,KATHLEEN,NULL
FROGGIES TRANSPORTATION,2580 Calverton Heights Ave Baltimore MD 21216,39.297792999999999,-76.657720999999995,"492110",ROTHSTEIN,WANDA,NULL
ON TIME MOVERS LLC,3653 W Saratoga St Baltimore MD 21229,39.290723000000000,-76.677529000000007,"488210",LUNA,BRADY,NULL
UNSELD'S ELEMENTARY AND MIDDLE SCHOOL,250 S Hilton St Baltimore MD 21229,39.282249999999998,-76.672775999999999,"611110",BENAVIDES,BRIAN,NULL
SUPREME,1922 W Pratt St Baltimore MD 21223 USA,39.285390999999997,-76.647548999999998,"812111",BROOKS,MELISSA,NULL
BARBER MAID,2014 Edmondson Ave Baltimore MD 21223 USA,39.295226000000000,-76.649540000000002,"812112",FROST,JAMES,ALVARO
DCM DECOR LLC,2547 W Fairmount Ave Baltimore MD 21223,39.288162999999997,-76.657466999999997,"999990",MONTOYA,GLADYS,MARY
"SAFE IMPORT, LLC.",289 N Franklintown Rd Baltimore MD 21223,39.290756999999999,-76.660432999999998,"423210",ROBINSON,RICHARD,RUPERT
19 DOLLAR,1008 N Bentalou St Baltimore MD 21216,39.299889000000000,-76.653782000000007,"999990",KOHL,MARY,NULL
"INC., T/A NEIGHBORCARE",1000 S Monroe St Baltimore MD 21230,39.276094000000001,-76.644609000000003,"711510",GARNER,TAMI,ALMA
LAWSON PAINTING CALVIN,1129 Mt Holly St Baltimore MD 21229,39.299368000000001,-76.679867999999999,"238320",VOGELER,CHARLOTTE,NULL
GREATER PURPOSE APOSTOLIC CHURCH,2819 Rayner Ave Baltimore MD 21216,39.296107999999997,-76.663160000000005,"813110",BOONE,EDNA,EVA
GILMORE PLEASURE CLUB,345 S Gilmor St Baltimore MD 21223,39.283605000000001,-76.641892999999996,"713940",GRANT,ROGER,BENJAMIN
HARRIET TUBMAN ELEMENTARY SCHOOL 138,1835 Arunah Ave Baltimore MD 21217,39.295662000000000,-76.646665999999996,"611110",SHELLY,THOMAS,NULL
"WARES THE GIFTS, LLC",35 N Monastery Ave Baltimore MD 21229,39.287514999999999,-76.676784999999995,"453220",WARNER,BOBBY,JAVIER
"MY ELITE COMPUTER SERVICES, INC.",764 N Grantley St Baltimore MD 21229,39.296951999999997,-76.676017000000002,"541990",SHIELDS,JANINE,LORETA
MONFAY CARRYOUT,78 N Monroe St Baltimore MD 21223,39.289296999999998,-76.647143000000000,"722513",BURNETT,CHRISTINE,KIRSTEN
"EPITOME OF SERVICE, INCORPORATED",439 Gwynn Ave Baltimore MD 21229,39.292194000000002,-76.673546000000002,"561990",WILLIAMSON,LACEY,HELEN
MCCURLEY FLOORING,2549 Ashton St Baltimore MD 21223,39.279991000000003,-76.656316000000004,"442210",LATHAN,CHRISTIAN,JONATHAN
S AND S ENTERPRISES WORLDWIDE,909 N Bentalou St Baltimore MD 21216 USA,39.298873999999998,-76.653208000000006,"561499",STREETMAN,JAMES,JASON
JMN EXPRESS,150 N Mount St Baltimore MD 21223,39.290317000000002,-76.644073000000006,"999990",SCHILLING,OLIVIA,NULL
MD SECURITY SERVICES,2111 W Pratt St Baltimore MD 21223,39.284835999999999,-76.650304000000006,"621111",TURCOTTE,KENNETH,JOHNNY
MANGER PACKING CORPORATION,137 S Franklintown Rd Baltimore MD 21223,39.285890000000002,-76.658100000000005,"424470",MONARREZ,RUSSELL,CYRIL
DAROU SALLAM LLC,2253 W Saratoga St Baltimore MD 21223,39.291651000000002,-76.652420000000006,"999990",HATTAN,BARBARA,NULL
BERRY BUNCH DAYCARE,2368 Edmondson Ave Baltimore MD 21223,39.295020000000001,-76.654308000000000,"624410",BOGER,CHELSEY,NULL
MARYLAND DEPT OF PUBLIC SAFETY & CORRECTIONAL SERVICES,311 N Calverton Rd Baltimore MD 21223,39.292704000000001,-76.660185999999996,"922140",DARCANGELO,RUTH,NULL
1 MANS GOODS,2013 Ashton St Baltimore MD 21223,39.282423999999999,-76.649079999999998,"451110",NORFLEET,ZELLA,NULL
HOWARD MOTORS INC,3379 Frederick Ave Baltimore MD 21229,39.280814999999997,-76.673803000000007,"441228",BLANCHARD,AMY,CINDY
UNIVERSITY OF MARYLAND BALTIMORE COUNTY,3192 Wilkens Ave Baltimore MD 21223,39.275103999999999,-76.668163000000007,"611310",GORE,LINDA,KIMBERLY
ACME PAD CORPORATION,330 N Warwick Ave Baltimore MD 21223 USA,39.292532000000001,-76.656952000000004,"314999",SALERNO,EDNA,EILEEN
FIVE STAR MINI MART AND DELI LLC,101 S Payson St Baltimore MD 21223,39.285984999999997,-76.648236999999995,"722513",AHERN,DONNA,NULL
REAL VALUE INVESTMENTS,3102 Elbert St Baltimore MD 21229,39.287311000000003,-76.669803000000002,"523910",BETTIS,CRISTINA,NULL
L&J CONSTRUCTION SERVICE INC,2743 Wilkens Ave Baltimore MD 21223,39.277439000000001,-76.659768000000000,"541219",REHMAN,STEPHEN,RICHARD
ALLEN CONSTRUCTION,216 N Monroe St Baltimore MD 21223,39.290975000000003,-76.647306999999998,"236115",ORVIS,MICHELLE,JUANITA
CITY FOOD DEPOT LLC,630 N Franklintown Rd Baltimore MD 21216,39.295344000000000,-76.664754000000002,"445110",PETERS,CHARLES,NULL
CES SALES,649 S Smallwood St Baltimore MD 21223,39.279764999999998,-76.649491999999995,"238220",BOLLS,WILLIAM,NULL
BEST MARKET,607 Edgewood St Baltimore MD 21229,39.294632999999997,-76.675342000000001,"445110",ANDERSON,MARY,NULL
B-MORE WORLD WIDE ENTERTAINMENT (LLC),147 S Hilton St Baltimore MD 21229 USA,39.283577000000001,-76.671901000000005,"711510",WADE,CASSANDRA,DELIA
TAB INC,155 Denison St Baltimore MD 21229,39.289073000000002,-76.676019999999994,"561990",ROGERS,HELEN,NULL
"TRIPLE T'S MOVING, L.L.C",782 Edgewood St Baltimore MD 21229,39.296858000000000,-76.673916000000006,"488210",SCHLOSSER,EVELYN,JENNIFER
"NATIONAL RECLAMATION, INC.",668 S Smallwood St Baltimore MD 21223,39.279086999999997,-76.650172999999995,"999990",DOWNEY,ROCIO,LAURIE
"HIMEX INTERNATIONAL, INC",3147 Piquett Ln Baltimore MD 21229,39.281348999999999,-76.669031000000004,"424210",CLAYTON,JOHNNY,NULL
FREEMAN CONSTRUCTION & PR,238 Harmison St Baltimore MD 21223,39.284689999999998,-76.649315000000001,"236115",PORCO,KAITLYN,NULL
NAMIQUE CREATIONS,3141 Leeds St Baltimore MD 21229,39.282603999999999,-76.668933999999993,"624190",BRO,SYDNEY,NULL
TALK OF THE TOWN MERCHANDISERS,135 N Culver St Baltimore MD 21229 USA,39.288428000000003,-76.674508000000003,"999990",BANACH,MAX,NULL
MALIKS GROCERY,507 S Bentalou St Baltimore MD 21223,39.281294000000003,-76.652253000000002,"445110",MATEEN,KELLY,NULL
MARIQUITA DELI GROCERY,208 N Monroe St Baltimore MD 21223,39.290742000000002,-76.647300000000001,"445110",HASHMI,JESSICA,NULL
NATIONAL ASSOCIATION OF BLACK STORYTELLERS,622 N Dukeland St Baltimore MD 21216,39.294691999999998,-76.663199000000006,"813920",SLOAN,LISA,NULL
FOUR SEASONS,220 Harmison St Baltimore MD 21223,39.284852000000001,-76.649366999999998,"448110",KELLY,BARBARA,NULL
"BARSHA, INC.",306 N Franklintown Rd Baltimore MD 21223 USA,39.292380999999999,-76.662154999999998,"999990",MUNOZ,CAROL,MARJORIE
MAC'S SIMPLY DIVINE CATERERS,172 N Monastery Ave Baltimore MD 21229,39.289122999999996,-76.675308999999999,"722320",CONFER,ROBERT,NULL
"SPECIAL OCCASIONS BY READA, INC.",2422 Harlem Ave Baltimore MD 21216,39.296441000000002,-76.655214000000001,"561990",EPPOLITO,PHILIP,NULL
GARY P MARCH FUNERAL HOME PROFESSIONAL ASSOCIATION,248 Fredhilton Pass Baltimore MD 21229,39.281661000000000,-76.672838999999996,"812210",CATALDO,BRETT,DAVID
CHARLES DORSEY & CO,2560 Harlem Ave Baltimore MD 21216,39.296363999999997,-76.657342000000000,"999990",COOPER,DANA,NULL
A1 JUKEBOX & NOSTALGIA CO,211 S Pulaski St Baltimore MD 21223,39.284835000000001,-76.649687999999998,"453310",FAULKNER,ROY,NULL
D & A HOMES LLC,13 Wheeler Ave Baltimore MD 21223,39.288255999999997,-76.654179999999997,"236115",DELLAQUILA,MARGARET,NULL
UNION MEMORIAL UNITED METHODIST CHURCH,2505 W Lanvale St Baltimore MD 21216,39.296723999999998,-76.656689999999998,"813110",NUNN,LOUIS,NULL
SHOP THE COBBLERS INC,2253 W Saratoga St Baltimore MD 21223,39.291651000000002,-76.652420000000006,"811430",ROLLE,CAROLYN,NULL
ANGELS BEAUTY ESSENTIALS,2722 W Mosher St Baltimore MD 21216,39.299492000000001,-76.663022999999995,"812112",ORTIZ,STACEY,MARCUS
CHRISTOPHER KREBS,564 Parksley Ave Baltimore MD 21223,39.277828000000000,-76.665880999999999,"999990",ROSE,MELVIN,NULL
COMMUNITY IMPACT BALTIMORE,24 N Fulton Ave Baltimore MD 21223 USA,39.288874000000000,-76.645550999999998,"624110",COWEN,DANIEL,NULL
SURE PRO RENOVATIONS,2542 Wilkens Ave Baltimore MD 21223,39.279375000000002,-76.655345999999994,"236118",LEMANSKI,ALMA,NULL
LAWRENCE BLIM,1602 Hollins St Baltimore MD 21223,39.287619999999997,-76.642553000000007,"541213",HEINKE,DILLON,DAVID
STREET S,566 N Grantley St Baltimore MD 21229,39.294417000000003,-76.677464000000001,"999990",STEVENSON,PAULA,NULL
PRATT CUT RATE LIQUORS,154 Harmison St Baltimore MD 21223,39.285282000000002,-76.649321999999998,"445310",MCDERMOTT,ROOSEVELT,CLAUDE
MILLER GROCERY/CIGARETTE,125 S Culver St Baltimore MD 21229 USA,39.284264999999998,-76.678703999999996,"445110",DECKER,DEWAYNE,JOHN
SHIPCO TRANSPORT,2114 W Fairmount Ave Baltimore MD 21223,39.288794000000003,-76.650316000000004,"488999",AFONSO,STACI,NULL
BON SECOURS BALTIMORE HEALTH CORPORATION,2000 W Baltimore St Baltimore MD 21223,39.288570999999997,-76.649209999999997,"622110",WILLIAMS,MARGARET,NULL
"AMERICAN RESCUE WORKERS, INC.",9 S Catherine St Baltimore MD 21223,39.287492000000000,-76.655901000000000,"624310",PARDO,MELISSA,NULL
BAH CATERERS AND PERSONAL SERV,977 Chief St Baltimore MD 21216,39.299357999999998,-76.653750000000002,"541990",HUERTA,JOSEPH,NULL
GREATER FAITH COMMUNITY CHURCH,915 N Vincent St Baltimore MD 21217,39.299033999999999,-76.643546999999998,"813110",JOHANSON,BUDDY,RUSSELL
C T M,427 Mt Holly St Baltimore MD 21229,39.291952000000002,-76.679304999999999,"811490",WILLIAMS,BILLYE,NULL
HARVEY'S PROFESSIONAL CLEANING,1542 W Lanvale St Baltimore MD 21217,39.297908000000000,-76.642066999999997,"561790",THORPE,BARBARA,FRIEDA
ROSALING MURRAY DAY CARE,212 N Bruce St Baltimore MD 21223,39.290792000000003,-76.644690999999995,"624410",MORGAN,CLAIRE,KATIE
STANDARD REFRIGERATION INC,2916 Stafford St Baltimore MD 21223 USA,39.279058999999997,-76.665201999999994,"238220",NGUYEN,HARRY,NULL
STROHMER'S HARDWARE,2001-2019 Lemmon St Baltimore MD 21223,39.285477999999998,-76.648741000000001,"444130",OROZCO,MARJORIE,MINNIE
THE ALL NEW SATELLITE BAPTIST CHURCH,2441 W Lexington St Baltimore MD 21223,39.290087000000000,-76.654964000000007,"813110",KRAUSE,GARY,HERMAN
"WELCH, WILLIAM A JR",2922 Edmondson Ave Baltimore MD 21223,39.294609999999999,-76.665379999999999,"541211",STACEY,JOHN,NULL
FOOD CENTER,600 N Payson St Baltimore MD 21217 USA,39.295406000000000,-76.649269000000004,"445110",SHADER,WILLIAM,NULL
CREATIVE TOUCH ALL NATURAL UNISEX LLC,1773 McHenry St Baltimore MD 21223,39.284199000000001,-76.644743000000005,"999990",VINEYARD,DOTTIE,NULL
BEAUTIFUL BLESSINGS,735 Whitmore Ave Baltimore MD 21216,39.295972999999996,-76.657691999999997,"999990",BREWER,PETER,NULL
YANG QINGZHEN,2013 Edmondson Ave Baltimore MD 21223,39.294908000000000,-76.649429999999995,"999990",JUSTICE,JOHN,NULL
"11TH HOUR MINISTRIES INTERNATIONAL, INC.",1913 W Mosher St Baltimore MD 21217,39.299647000000000,-76.648000999999994,"813110",BALLEW,DOYLE,TOMMY
HAIR HUT,3219 W Baltimore St Baltimore MD 21229,39.285704000000003,-76.671319999999994,"812112",BLACK,GLORIA,DONNA
DANA'S TIRES INC,409 N Warwick Ave Baltimore MD 21223,39.292526000000002,-76.656006000000005,"441320",KENNEY,CYNTHIA,NULL
AMOCO,2343 Frederick Ave Baltimore MD 21223,39.284218000000003,-76.653295000000000,"447190",MISNER,LAURA,NULL
SERVICE DENTAL LABORATORY,3572 Frederick Ave Baltimore MD 21229,39.281835999999998,-76.676063999999997,"339116",WILLIAMS,JOSE,RICHARD
KC BEAUTY SUPPLY,2343 Frederick Ave Baltimore MD 21223,39.284218000000003,-76.653295000000000,"423850",GREENLEE,BRIGITTE,NULL
SAGAMORE CREATIVE SERVICES GROUP,316 Goldsmith St Baltimore MD 21223,39.283768000000002,-76.647606999999994,"541990",BECTON,RONALD,NULL
BRAUNER EQUIPMENT COMPANY,344 S Dukeland St Baltimore MD 21223,39.280413000000003,-76.662637000000004,"423810",LE,ELENOR,NULL
JOYCE R BUTLER,1835 W Lanvale St Baltimore MD 21217,39.297406000000002,-76.646835999999993,"624410",TREW,CECILIA,NULL
SAMS HOUSE OF CHILDCARE,37 N Kossuth St Baltimore MD 21229,39.287517999999999,-76.674318000000000,"624410",COUNTER,OSCAR,NULL
WHETSTONE CO,2603 Dulany St Baltimore MD 21223 USA,39.280186999999998,-76.657048000000003,"531110",PURCELL,WILLIAM,KEVIN
LEGEND MOTORS INC,3008 Wilkens Ave Baltimore MD 21223 USA,39.276085999999999,-76.665654000000004,"441228",BURDGE,WILLIAM,NULL
WEAVER CONSTRUCTION,548 N Fulton Ave Baltimore MD 21223 USA,39.295053000000003,-76.645791000000003,"236118",TRAWICK,RICHARD,NULL
MIRROR CRAFTERS INC,2907 Stafford St Baltimore MD 21223,39.278590000000001,-76.664726999999999,"327215",LIPPINCOTT,WENDY,CONNIE
L.S. SERVICES,3401 W Caton Ave Baltimore MD 21229 USA,39.285984999999997,-76.673734999999994,"541990",MOORE,MARY,LORI
GILMOR GROCERY,277 S Gilmor St Baltimore MD 21223,39.284630000000000,-76.641969000000003,"445110",MCKEOWN,JASON,NULL
J & F AUTO REPAIRS,5 S Mount St Baltimore MD 21223,39.288100999999997,-76.643635000000003,"811111",EDMUND,ROY,TROY
MCI TULSA LINE-COST-DOLNNET,1000 S Monroe St Baltimore MD 21230,39.276094000000001,-76.644609000000003,"517911",LINKOUS,RICHARD,NULL
LATINO AMERICA DELI,2200 Christian St Baltimore MD 21223 USA,39.281312000000000,-76.651300000000006,"722513",COOK,INELL,NULL
WILLIS DISTRIBUTION INC.,2434 W Lafayette Ave Baltimore MD 21216,39.298689000000003,-76.655513999999997,"424990",REGALADO,KELLY,ELVIRA
ATLAS AUTO CLINIC INC,3235 Lohrs Ln Baltimore MD 21229,39.284678000000000,-76.671334999999999,"811111",EARLY,FELIPE,NULL
WALDON PROJECTS LLC,83 S Morley St Baltimore MD 21229,39.285162000000000,-76.675396000000006,"541512",DEROSIA,PERCY,KEVIN
HOUSING AUTHORITY OF BALTIMORE CITY,2929 W Lanvale St Baltimore MD 21216,39.296959999999999,-76.665565999999998,"925110",GREGORY,REBECCA,NULL
C PETERSEN,3252 W Baltimore St Baltimore MD 21229,39.286008000000002,-76.671766000000005,"448190",DUNN,DOROTHY,ELIZABETH
DILIP BHAGAT,2738 Wilkens Ave Baltimore MD 21223 USA,39.277920999999999,-76.659723999999997,"621111",COWLING,MONA,BETTY
DESIGNS BY RENE,2439 Edmondson Ave Baltimore MD 21223 USA,39.294508999999998,-76.656001000000003,"541990",DANTZLER,JULIE,DIANE
MARYLAND BUSINESS SERVICES INC,2990 Benson Ave Baltimore MD 21223,39.274690000000000,-76.664683999999994,"541990",GIRGIS,SHERWOOD,NULL
CVS,2579 Lauretta Ave Baltimore MD 21223,39.293742999999999,-76.658930999999995,"446110",MELVIN,CHRISTOPHER,NULL
MARYLAND BAPTIST AGED HOME INC,2819 Rayner Ave Baltimore MD 21216,39.296107999999997,-76.663160000000005,"623312",FLOREZ,LUCY,NULL
"POSITIVE YOUTH EXPRESSIONS, INC.",2318 W Lexington St Baltimore MD 21223 USA,39.290534000000001,-76.653627999999998,"611699",ORR,SCOTT,NULL
LINWOOD STEVENS,319 N Payson St Baltimore MD 21223,39.292399000000003,-76.648702999999998,"999990",CUTTING,ROLAND,NULL
WOODA LITTLE PPL CHLD CR,2475 Edmondson Ave Baltimore MD 21223,39.294516999999999,-76.655940999999999,"624410",SEABOLT,JERALD,NULL
PROJECT HOME ASSISTANT LIVING,2544 Ashton St Baltimore MD 21223,39.280521999999998,-76.655804000000003,"999990",NGUYEN,JOHN,NULL
"A BETTER CHOICE PARKING SERVICE, INC",2555 W Lafayette Ave Baltimore MD 21216,39.298130000000000,-76.658366000000001,"812990",ALI,ADINA,NULL
PROPERTY MANAGER,242 N Mount St Baltimore MD 21223,39.291249999999998,-76.644158000000004,"561110",SALVI,CHRISTOPHER,WILLIAM
W.C.D.T. LLC,2266 W Lanvale St Baltimore MD 21216,39.297159999999998,-76.653063000000003,"999990",MONET,MICHAEL,DINO
"JUST-4-U TRANSIT, LLC",2025 W Lexington St Baltimore MD 21223 USA,39.290303999999999,-76.649839999999998,"484110",BARNETT,ANTHONY,GARRETT
SHAKESPEARE ASSN OF AMERICA,3192 Wilkens Ave Baltimore MD 21223,39.275103999999999,-76.668163000000007,"813920",SHUMAKER,LISSETTE,JULIE
BI COMMUNICATIONS,661 N Pulaski St Baltimore MD 21217,39.295794000000001,-76.650282000000004,"517919",HESTER,ANTON,NULL
JAMES LITTLE,2505 Lauretta Ave Baltimore MD 21223,39.293863000000002,-76.656575000000004,"238990",RODRIGUEZ,DORIS,LINDA
ONE STEP UP,962 N Parrish St Baltimore MD 21217,39.299596999999999,-76.642413000000005,"624410",NEILSEN,GLEN,CARLTON
T & D PLUMBING CO,2125 W Pratt St Baltimore MD 21223 USA,39.284714999999998,-76.650896000000003,"238220",MALLARD,LUIS,NULL
ADANT E AROMATICS,2560 Harlem Ave Baltimore MD 21216,39.296363999999997,-76.657342000000000,"999990",ORR,REBECKA,NULL
GLOBAL MESSENGER CORPORATION,1044 S Monroe St Baltimore MD 21230,39.275877000000001,-76.644113000000004,"484110",HUYNH,EDUARDO,NULL
MIN. ENGINEERING,1859 W Pratt St Baltimore MD 21223,39.285038999999998,-76.646257000000006,"541330",STOY,ALFONSO,NULL
RHONDA ELSEY-JONES,796 N Grantley St Baltimore MD 21229 USA,39.297511000000000,-76.675363000000004,"999990",ATWOOD,DONALD,WILLIAM
WILKEN SERVICE CENTER,1943 Wilkens Ave Baltimore MD 21223,39.281677999999999,-76.647047000000001,"541990",PERKINS,HAZEL,JANET
PREMIER TOURS TRAVEL,2457 Arunah Ave Baltimore MD 21216,39.295332000000002,-76.655714000000003,"561510",MENESES,ELIZABETH,NULL
THE BIBLE WAY CHURCH OF GOD IN CHRIST INC,232 Ackworth St Baltimore MD 21223,39.284683999999999,-76.650747999999993,"813110",YUNG,JAMES,BENJAMIN
ALPHA SGMA KPPA - ZETA CHAPTER,3192 Wilkens Ave Baltimore MD 21223,39.275103999999999,-76.668163000000007,"813410",WARD,MARCO,NULL
EIGHT THIRTEEN ZHU CARRYOUT CORPORATION,2454 W Baltimore St Baltimore MD 21223,39.287911999999999,-76.656181000000004,"999990",KNIGHT,SHARRI,NULL
WILKENS CARRYOUT INC,419 S Mount St Baltimore MD 21223,39.282953999999997,-76.643265999999997,"722511",HEINEN,TARA,BRITTANY
CLEARVIEW WINDOW CLEANING,1082 S Dukeland St Baltimore MD 21223,39.274914000000003,-76.661733999999996,"561720",HEINEMANN,HILARY,NULL
HOUSE OF METALS INC,3008 Wilkens Ave Baltimore MD 21223 USA,39.276085999999999,-76.665654000000004,"811121",BRYANT,JEWEL,NULL
ART AUSAR'S,584 Sunset Rd Baltimore MD 21223,39.277211999999999,-76.664505000000005,"999990",BELCASTRO,LIONEL,MICHAEL
"DELAWARE SPECIALTY DISTRIBUTION, LLC",1000 S Monroe St Baltimore MD 21230,39.276094000000001,-76.644609000000003,"999990",ELLIS,TIMOTHY,NULL
ATLANTIC PARKING INC,1703 W Lombard St Baltimore MD 21223,39.286119999999997,-76.644159999999999,"812930",DUMAIS,ANDREA,NULL
BLACK EYED SUSANS CONCESSIONS,512 Hurley Ave Baltimore MD 21223,39.277776000000003,-76.663736999999998,"722513",DREXEL,JOYCE,MARLEEN
ALWAYS COOKING BEST CRABS LLC,225 N Monroe St Baltimore MD 21223 USA,39.291145999999998,-76.646871000000004,"722511",TURNER,ANDREW,JAMES
JULIA M ROSS,3192 Wilkens Ave Baltimore MD 21223,39.275103999999999,-76.668163000000007,"541990",BUXBAUM,ALICE,NULL
GENERAL WIPING CLOTH CO INC,350 N Franklintown Rd Baltimore MD 21223,39.291263999999998,-76.662239999999997,"313320",SITES,VIKKI,NULL
HOUSE OF GLORY INC,2832 W Mulberry St Baltimore MD 21223,39.292786999999997,-76.663027999999997,"561990",GRAY,ROMONA,JUANITA
B STREET PAWN,2700 W Baltimore St Baltimore MD 21223,39.287762999999998,-76.659133999999995,"522298",BARRETT,TERRY,JONATHAN
MIKE GRAY HAULING LLC,222 N Monastery Ave Baltimore MD 21229,39.289552000000000,-76.674700999999999,"484110",HICKMAN,STEVEN,DAMIAN
SHANE CONSTRACTOR LLC,1916 W Lafayette Ave Baltimore MD 21217,39.298886000000003,-76.648101999999994,"236115",IPPOLITO,FAWN,NULL
FRANKLIN BP,None,39.292898999999998,-76.655878000000001,"447190",SALLEY,EDWARD,NULL
UNIQUE PROCUREMENTS AND SVCS,3665 Gelston Dr Baltimore MD 21229,39.296241000000002,-76.677862000000005,"424120",BROOKS,ANDREW,NULL
CHRISTOPHER JOHNSON,3742 Woodridge Rd Baltimore MD 21229,39.297398000000001,-76.679152999999999,"561990",MURRAY,DAVID,MARK
JJW ENTERPRISES,93 S Monastery Ave Baltimore MD 21229,39.285272999999997,-76.679198999999997,"561499",SMITH,SETH,THOMAS
MONROE STREET CHURCH OF GOD,321 N Monroe St Baltimore MD 21223,39.292188000000003,-76.646955000000005,"813110",TAYLOR,ADA,JOCELYN
KAROLY TRANSPORTS,1820 Dover St Baltimore MD 21223 USA,39.284835999999999,-76.645940999999993,"488999",METZLER,SHAWNA,NULL
SP PLUS CORPORATION,2239 W Fayette St Baltimore MD 21223,39.289138000000001,-76.652064999999993,"812930",NG,LANE,CHRISTOPHER
CITY CELL PHONES,2875 W Lanvale St Baltimore MD 21216,39.296996999999998,-76.664857999999995,"443142",FLISS,KATHLEEN,NULL
"GWYNNS FALLS BUSINESS AND HOMEOWNERS ASSOCIATION, INC.",3115 Strickland St Baltimore MD 21229,39.277450000000002,-76.668491000000003,"813990",TOOKER,ELENA,WHITNEY
KIDS IN MOTION,145 Palormo Ave Baltimore MD 21229,39.283118999999999,-76.675092000000006,"561990",REDDY,MARION,STEVEN
RHYTHM CUTS BARBERSHOP,2421 Frederick Ave Baltimore MD 21223,39.282389999999999,-76.655287000000001,"812112",CASTELLANOS,WILLIAM,LUIS
PALADIN IMPOUND & RECOVERY LLC,2990 Benson Ave Baltimore MD 21223,39.274690000000000,-76.664683999999994,"488410",RAY,RAYMOND,NULL
SIGMA SECURITY,2114 W Fairmount Ave Baltimore MD 21223 USA,39.288822000000003,-76.650654000000003,"561613",WEIMANN,BRIAN,JAN
RAVENWOOD NSG CENTER,2242 Penrose Ave Baltimore MD 21223,39.291272999999997,-76.652248000000000,"561990",BEITER,WILLIAM,NULL
"LEGACY FINANCIAL SOLUTIONS, LL",2166 W Fairmount Ave Baltimore MD 21223,39.288805000000004,-76.651066999999998,"523930",SCOTT,SHARI,NULL
"CRAZY DOWN SEAFOOD CHICKEN, INC",2542 W Franklin St Baltimore MD 21223,39.293557000000000,-76.657398999999998,"424460",STIGER,LINA,NULL
DAMECH AUTO SALES & TOWING INC.,1919 Christian St Baltimore MD 21223,39.282561000000001,-76.646856999999997,"441110",HUGGARD,MELINDA,NULL
"UNITY PROPERTIES, INC",24 N Fulton Ave Baltimore MD 21223 USA,39.288874000000000,-76.645550999999998,"531210",BRAMMER,JARROD,NULL
PUR PROPHET L.L.C.,165 S Addison St Baltimore MD 21223,39.285556999999997,-76.645619999999994,"999990",HELSTROM,WILLIAM,NULL
FEDERAL HIL RESUME CENTER,1916 W Baltimore St Baltimore MD 21223,39.288342999999998,-76.647408999999996,"561410",BAILEY,GARRETT,JEREMY
RICHARD KIM,164 S Pulaski St Baltimore MD 21223,39.285254000000002,-76.650068000000005,"445110",FRAMPTON,ELIZABETH,MARGARETA
PERISHABLE FOODS LLC,13 Wheeler Ave Baltimore MD 21223,39.288255999999997,-76.654179999999997,"999990",NEWMAN,GARY,NULL
BAM BAM AUTO,2771 Wilkens Ave Baltimore MD 21223,39.276155000000003,-76.660467999999995,"811111",GREGORY,FERN,ROBIN
PIZZA PIE & SUBS INC,3170 Stafford St Baltimore MD 21229,39.279780000000002,-76.669430000000006,"722513",LOVELACE,ALICE,NULL
ON STACK JEWELERY,904 Poplar Grove St Baltimore MD 21216,39.298172000000001,-76.665271000000004,"448310",ANASTACIO,CARLOS,NULL
GANN,2671 Frederick Ave Baltimore MD 21223,39.280881999999998,-76.659147000000004,"315220",CLIFTON,PAUL,JAMES
CRYSTAL WINDOWS CAPITAL CORP,612 S Caton Ave Baltimore MD 21229,39.277188000000002,-76.671864999999997,"321911",STRICKLAND,JACK,NULL
SECTEL COMMUNICATIONS LLC,7 N Fulton Ave Baltimore MD 21223 USA,39.288611000000003,-76.644982999999996,"541512",WASHINGTON,WALTER,ALLEN
MARYLAND PAPER PAD CO.,2901 Strickland St Baltimore MD 21223,39.276769000000002,-76.664794999999998,"424130",CATLETT,ANTHONY,DANNY
6 TWELVE CONVENIENT MART,1906 Ramsay St Baltimore MD 21223,39.283315000000002,-76.646935999999997,"445120",INGLE,AMANDA,NULL
L COOPER INCOME TAX SERVICE LLC,2107 Edmondson Ave Baltimore MD 21223,39.294831000000002,-76.650722000000002,"541213",MATNEY,WILLIAM,CLARENCE
CATHOLIC CHARITIES ST JEROMES HEAD START CENTER,1847 W Baltimore St Baltimore MD 21223,39.287981000000002,-76.646210999999994,"624190",TAYLOR,YOLANDA,NULL
WALTHER HOUSE,2010 Christian St Baltimore MD 21223 USA,39.282173000000000,-76.648758000000001,"561990",BLACKERBY,JOHN,NULL
JEFF & AMY'S CARRYOUT INC,2454 W Baltimore St Baltimore MD 21223,39.287911999999999,-76.656181000000004,"722513",HARDIN,THOMAS,ROSARIO
BATA HOUSE,2172 W Lexington St Baltimore MD 21223,39.290590000000002,-76.651225999999994,"624190",PELAEZ,NICHOLAS,NULL
KELLEY TRANSPORTATION LLC,512 N Payson St Baltimore MD 21223,39.294043000000002,-76.649191999999999,"488999",TRAVERS,CHELSEY,HAZEL
TODAYS CHILDREN TOMORROWS FUTURE,268 S Smallwood St Baltimore MD 21223,39.284329999999997,-76.651452000000006,"999990",SPANN,MARY,NULL
SHOE CITY,2421 Frederick Ave Baltimore MD 21223,39.282389999999999,-76.655287000000001,"448210",SNIDER,DAVID,NULL
BUDGET CAR & TRUCK RENTAL,200 N Warwick Ave Baltimore MD 21223 USA,39.290520999999998,-76.656279999999995,"532120",URRUTIA,GIL,NULL
BALTIMORE CITY HEALTHY START R,1757 W Fayette St Baltimore MD 21223,39.289352999999998,-76.644859999999994,"622210",KUFAHL,LINDSAY,NULL
FAMILY MART,176 N Kossuth St Baltimore MD 21229,39.288806000000001,-76.672723000000005,"445120",DAMAN,MARIAN,NULL
GREATER HARVEST BAPTIST CHURCH,1656 W Saratoga St Baltimore MD 21223,39.292256000000002,-76.643399000000002,"813110",BELMARES,MARY,MARCIE
LEADERS OF HAIR DESIGN,162 S Bruce St Baltimore MD 21223,39.285424999999996,-76.644498999999996,"812112",CHARRON,STEVEN,COREY
U SAVE ON OIL COMPANY INC,3199 Opel Ln Baltimore MD 21229,39.283807000000003,-76.668960999999996,"454310",MUNOZ,AMIE,NULL
FULL MOON GROCERY,3018 Arunah Ave Baltimore MD 21216,39.295274999999997,-76.667081999999994,"445110",LANDMAN,ANGELA,MARY
INSPIRING MINDS INC,463 Gwynn Ave Baltimore MD 21229,39.292445999999998,-76.673381000000006,"561990",GARCIA,WANDA,GERALDINE
CLATCHEY REALTY,408 Font Hill Ave Baltimore MD 21223,39.279510000000002,-76.663398999999998,"531210",HARDY,MAUREEN,NULL
JOHNSON'S BODY & FENDER,2119 Penrose Ave Baltimore MD 21223,39.291026000000002,-76.650469999999999,"811118",CAIN,IVONNE,KATE
MONEYGRAM,2001-2019 Lemmon St Baltimore MD 21223,39.285477999999998,-76.648741000000001,"452990",ARTH,BRENDA,NULL
SLACK ASSOCIATES INC,538 S Longwood St Baltimore MD 21223,39.278441999999998,-76.666719999999998,"334513",LEE,ROBERT,LEONARD
BRODY TRAILER,2301 Wilkens Ave Baltimore MD 21223,39.279949999999999,-76.651944000000000,"532120",BOONE,ALEC,NULL
"5 K FLOORING, INC.",2372 W Baltimore St Baltimore MD 21223,39.287970000000001,-76.654556999999997,"442210",BURDETT,BERNARD,JOHN
BURRIS & ASSOCIATES INC,2580 Harlem Ave Baltimore MD 21216,39.296348000000002,-76.657645000000002,"561499",AVILA,JAMES,NULL
FREDERICK ELEMENTARY SCHOOL,309 Millington Ave Baltimore MD 21223 USA,39.281830999999997,-76.657325000000000,"611110",WOODLAND,JESENIA,NULL
QQ CORNER INC.,2507 Edmondson Ave Baltimore MD 21223 USA,39.294483000000000,-76.656574000000006,"999990",CONEY,FAITH,SANDRA
M AND E LIQUORS,1917 Frederick Ave Baltimore MD 21223,39.286510999999997,-76.647309000000007,"445310",OVERBY,NICHOLAS,WILLIAM
KIPP HARMONY ACADEMY ELEMENTARY AND MIDDLE SCHOOL,200 Font Hill Ave Baltimore MD 21223,39.283839999999998,-76.665153000000004,"611110",RESPICIO,ANN,BESS
"F & I REALTY COMPANY, INCORPORATED",3141 Phelps Ln Baltimore MD 21229,39.287734999999998,-76.670297000000005,"531210",FEDORCHAK,SUSAN,BRENDA
A CHANGE BEAUTY SALON,1837 Frederick Ave Baltimore MD 21223 USA,39.286734000000003,-76.646602000000001,"812112",OUTLAND,CARROLL,NULL
HAYFORD BUILDERS,432 S Caton Ave Baltimore MD 21229,39.279384000000000,-76.671948000000000,"541310",SLAGHT,PALMER,NULL
"FOREST WHOLESALE, INC.",289 N Franklintown Rd Baltimore MD 21223,39.290756999999999,-76.660432999999998,"424320",SCHOLZ,CAROLE,CAROL
"C & C PROPERTY HOLDING, LLC",2441 W Lexington St Baltimore MD 21223,39.290087000000000,-76.654964000000007,"551112",MURRAY,KIMBERLY,LEAH
HILTON SUPERMARKET,3341 W Baltimore St Baltimore MD 21229,39.285532000000003,-76.672625999999994,"445110",ANDERSON,JUAN,ROBERT
TERRELL ANTONIO ATKINSON CONTRUCTION,40 S Franklintown Rd Baltimore MD 21223,39.286622000000001,-76.658679000000006,"236220",HOCHMAN,PAMELA,RUBY
"A.T.MANAGMENT CONSULTANT GROUP, INC",114 S Gilmor St Baltimore MD 21223 USA,39.285944999999998,-76.642477000000000,"541618",MERCURIO,EFRAIN,MATTHEW
DANIELLE HEARN,550 Mt Holly St Baltimore MD 21229,39.293382000000001,-76.679838000000004,"624410",GREEN,SUZANNE,NULL
AWM LLC,1000 S Monroe St Baltimore MD 21230,39.276094000000001,-76.644609000000003,"423310",VANG,ANA,QUEENIE
DAVE WA,2860 Rayner Ave Baltimore MD 21216 USA,39.296416000000001,-76.664331000000004,"999990",SPRAGUE,OLGA,NULL
D D HOTDOGS,2265 W Lexington St Baltimore MD 21223,39.290190000000003,-76.652489000000003,"722513",BAX,WINSTON,STEVEN
GOD'S LITTLE ANGELS FAMILYDAYCARE,562 Sunset Rd Baltimore MD 21223,39.277479000000000,-76.664454000000006,"624410",TURNER,WARREN,NULL
HILTON LIQUORS INC,24 N Ellamont St Baltimore MD 21229,39.286171000000003,-76.670614999999998,"445310",HUBLEY,MIGUEL,GEORGE
EDMONDSON DELI & CARRYOUT,604 Allendale St Baltimore MD 21229,39.294179999999997,-76.678617000000003,"722513",GALAN,CHARLYN,NULL
FERGUSON BUS COMPANY,63 S Franklintown Rd Baltimore MD 21223,39.287250999999998,-76.658496000000000,"485510",NUNEZ,JULIAN,NULL
HELPING HANDS SUPPORTING HOUSING INC.,21 N Rosedale St Baltimore MD 21229,39.286197000000001,-76.668796000000000,"999990",MCSWEEN,POLLY,SARAH
BEVERLY S FAMILY DAY CARE,3762 Cranston Ave Baltimore MD 21229,39.296636999999997,-76.679406000000000,"624410",OLIVER,BOBBY,NULL
CHECKERS DRIVE IN,2343 Frederick Ave Baltimore MD 21223,39.284218000000003,-76.653295000000000,"722513",BLAIR,REFUGIO,NULL
F H AUTO SALES,432 S Caton Ave Baltimore MD 21229,39.279384000000000,-76.671948000000000,"441120",HUNT,SEAN,GEORGE
"3301 JOPPA PARTNERSHIP, LLP",141 Landwehr Ln Baltimore MD 21223,39.285212000000001,-76.653293000000005,"999990",LEER,FLORENE,LUCILLE
NO 1 CHINESE RESTAURANT,2421 Frederick Ave Baltimore MD 21223,39.282389999999999,-76.655287000000001,"722511",FLORES,THOMAS,NULL
DEPARTMENT OF PUBLIC WORKS,2784 W Fairmount Ave Baltimore MD 21223,39.288654999999999,-76.660775000000001,"924110",KICKLIGHTER,MICHAEL,NULL
MARY KAY BEAUTY CONSULTANT,453 Lyndhurst St Baltimore MD 21229,39.292146000000002,-76.680285999999995,"446120",FULLEN,RUTH,NULL
STARLIGHT TRAINING AND CONSULTING,420 S Longwood St Baltimore MD 21223,39.279834999999999,-76.666685000000001,"541690",POPPLEWELL,CARLA,MARJORIE
WASHINGTON MONROE LLC,1000 S Monroe St Baltimore MD 21230,39.276094000000001,-76.644609000000003,"531190",HALL,JUDY,NULL
NINAS DAYCARE,336 N Mount St Baltimore MD 21223,39.292431000000001,-76.644214000000005,"624410",SCHILLING,KENNETH,EDWIN
PETER H HAMILTON,432 S Caton Ave Baltimore MD 21229,39.279384000000000,-76.671948000000000,"999990",ASSAD,ZACHARY,NELSON
FREEDOM CHURCH AND MINISTRIES INC,846 N Brice St Baltimore MD 21217,39.298029000000000,-76.650088999999994,"813110",BUCHANAN,ROBERT,ROBERT
"YAMI YAMI RICH, INC.",3341 W Baltimore St Baltimore MD 21229,39.285532000000003,-76.672625999999994,"445110",HAGAN,CHARLES,NULL
KINGS AUTO SALE,162 S Fulton Ave Baltimore MD 21223,39.285595999999998,-76.645285000000001,"441120",COLLYMORE,JULIAN,NULL
CAR PLAZA LLC,3337 Frederick Ave Baltimore MD 21229,39.280624000000003,-76.673063999999997,"811118",SPEARS,ERICK,GROVER
PILGRIM NANLESTA,137 Seigwart Ln Baltimore MD 21229,39.283569000000000,-76.675863000000007,"999990",WEST,DARRYL,ERIC
ALWAYS AVILABLE LCOKSMITH,54 N Bruce St Baltimore MD 21223,39.288969999999999,-76.644621000000001,"561622",HORNBERGER,CASSIE,NULL
T K HOLLAND MINI MKT.,681 N Dukeland St Baltimore MD 21216,39.295338999999998,-76.662898999999996,"445120",TORRES,VALERIE,DAWN
BAY AREA ACCESS CONTROLS,914 S Brunswick St Baltimore MD 21223,39.277372000000000,-76.658756999999994,"444110",PECH,THOMAS,JAMES
FATHER CHARLES MIDDLE SCHOOL,2855 W Lafayette Ave Baltimore MD 21216,39.297944999999999,-76.664089000000004,"611110",MADERA,MASON,PAUL
SYLVIA D HARRIS,2840 W Mulberry St Baltimore MD 21223 USA,39.292754000000002,-76.663646000000000,"561990",MASSEY,TROY,NULL
DEBORAH WILSON,363 N Franklintown Rd Baltimore MD 21223,39.292282000000000,-76.661285000000007,"621498",HOLLEY,TRAVIS,FRANK
"AWAIS ENTERPRISES, LLC",3337 Frederick Ave Baltimore MD 21229,39.280624000000003,-76.673063999999997,"561499",MORRIS,SUZANNA,HEATHER
"GAYNOR ESTATES, LLC",3502 W Caton Ave Baltimore MD 21229 USA,39.287460000000003,-76.674890000000005,"531210",DEROSA,HELEN,NULL
DIVINE CATHEDRAL CHURCH,172 N Monastery Ave Baltimore MD 21229,39.289122999999996,-76.675308999999999,"813110",DAVIS,JOSEFA,NULL
HILTON MART,619 Mt Holly St Baltimore MD 21229,39.294156000000001,-76.679579000000004,"453998",CADMAN,TERRY,TROY
"BEAUTIFUL CURLS N'TWISTS HAIR CARE, LLC",1647 Lemmon St Baltimore MD 21223,39.285721000000002,-76.642880000000005,"812112",GULBRANSON,JAMES,NULL
E C O,2014 Edmondson Ave Baltimore MD 21223 USA,39.295226000000000,-76.649540000000002,"624190",FARRUGGIA,NATHAN,GEORGE
URS,1000 S Monroe St Baltimore MD 21230,39.276094000000001,-76.644609000000003,"541330",LATHAM,KAYCEE,NULL
UNIVERSAL BROKERS,938 N Monroe St Baltimore MD 21217,39.299126999999999,-76.647740999999996,"999990",LUGO,JEFFERY,ZACK
MASON MEMORIAL CHURCH OF GOD IN CHRIST INC,2608 Frederick Ave Baltimore MD 21223 USA,39.282626000000000,-76.657899000000000,"813110",DOUGLAS,MARY,FRANCES
TRUCK & HEAVY EQUIPMENT REPAIR,2025 W Lexington St Baltimore MD 21223 USA,39.290303999999999,-76.649839999999998,"811111",SMITH,IAN,NULL
"ON YOUR WAY HAULING, LLC",610 Allendale St Baltimore MD 21229,39.294429999999998,-76.678630999999996,"484110",FISHER,ALFRED,HAYWOOD
KIMS FOOD MARKET,273 N Fulton Ave Baltimore MD 21223,39.291832999999997,-76.645195000000001,"445110",FUTRELL,VANNA,VICKEY
BEST CARE PHARMACY IN,480 Wellesley St Baltimore MD 21229,39.279451000000002,-76.668380999999997,"446110",HOLLENBECK,KARYL,NULL
ADANTE ASSOCIATES LLC,2560 Harlem Ave Baltimore MD 21216,39.296363999999997,-76.657342000000000,"492210",ORMSBEE,ISREAL,NULL
FEDMIL HUMAN RESOURCES SUPPORT SERVICE,2921 Arunah Ave Baltimore MD 21216 USA,39.295025000000003,-76.665972999999994,"541612",LEMAN,MINA,BARBARA
T O BEST CO,649 S Brice St Baltimore MD 21223,39.280287000000001,-76.647604999999999,"332322",STAGGS,MARJORIE,NULL
MARILYN'S HOUSE LLC,3133 Elbert St Baltimore MD 21229,39.287094000000003,-76.670006999999998,"999990",ADDO,FRANCES,NULL
UNIVERSAL CARRIER INDUSTRIES LLC,452 S Bentalou St Baltimore MD 21223,39.282114999999997,-76.652735000000007,"339999",SUNDT,MARC,RONALD
YOUR WAY FREIGHT,2415 W Mosher St Baltimore MD 21216 USA,39.299072000000002,-76.655625999999998,"488999",POWERS,SANDRA,JULIE
MARY E RODMAN ELEMENTARY SCHOOL,3663 W Franklin St Baltimore MD 21229,39.292529999999999,-76.676347000000007,"611110",BREEDEN,TRACY,NULL
BROTHERS FIVE,2771 Wilkens Ave Baltimore MD 21223,39.276155000000003,-76.660467999999995,"811111",SMITH,RICHARD,NULL
U HAUL,490 Brunswick St Baltimore MD 21223 USA,39.279218999999998,-76.659542999999999,"532490",WRIGHT,CLINT,WILTON
EAR TO THE STREETS,1808 W Baltimore St Baltimore MD 21223,39.288437000000002,-76.645516999999998,"621111",DOLLIVER,JERRY,NULL
ALDERMANS FAMILY DAY CARE,1045 Poplar Grove St Baltimore MD 21216,39.299694000000002,-76.664924999999997,"624410",MCFARLIN,ROBERT,MIKE
"AVALON CONSULTING SERVICES, LLC",330 N Warwick Ave Baltimore MD 21223 USA,39.292532000000001,-76.656952000000004,"541611",GARDNER,DANIELLE,CHRISTY
"XEROX STATE & LOCAL SOLUTIONS, INC",1000 S Monroe St Baltimore MD 21230,39.276094000000001,-76.644609000000003,"541512",HEAL,DAVID,NULL
MARK BOLD STEEL INDUSTRY,668 S Smallwood St Baltimore MD 21223,39.279086999999997,-76.650172999999995,"423510",RICH,RICHARD,NULL
H & B ENTERPRISES,1575 McHenry St Baltimore MD 21223,39.284300000000002,-76.641931000000000,"531210",HAMILTON,FRANCES,CAROLYN
MARK'S BARBER SHOP,2073 Edmondson Ave Baltimore MD 21223,39.294884000000003,-76.650198000000003,"812111",RHETT,EARNEST,NULL
WEST YOURTH OPPORTUNITY CENTER,962 N Parrish St Baltimore MD 21217,39.299596999999999,-76.642413000000005,"624110",BROWN,RICH,NULL
POP'S SHOP,2354 Wilkens Ave Baltimore MD 21223,39.280265999999997,-76.652889000000002,"445310",BARNETT,KEITH,ALBERT
CONSTRUCTION SERVICES,330 N Warwick Ave Baltimore MD 21223 USA,39.292532000000001,-76.656952000000004,"541990",SAECHAO,LLOYD,NULL
"WINGS OF INSPIRATION SCHOOL FOR THE PERFORMING ARTS, LLC",268 S Vincent St Baltimore MD 21223,39.284657000000003,-76.642954000000003,"999990",DRISKELL,CARLI,NULL
ANDY S AUTO BODY & PAIN,221 N Pulaski St Baltimore MD 21223,39.291024999999998,-76.650036999999998,"811121",PASCUAL,ANGELICA,OPAL
W & N INVESTMENT GROUP INC.,1841 W Fayette St Baltimore MD 21223,39.289327999999998,-76.646257000000006,"523910",KRAMER,KATHRINE,BETTY
TRADING POST GROCERY,283 N Fulton Ave Baltimore MD 21223,39.291913999999998,-76.645206999999999,"445110",GOWELL,VIVIAN,NULL
PENROSE CORNER LIQUOR,249 N Payson St Baltimore MD 21223,39.291418000000000,-76.648713000000001,"445310",VARGAS,CARLIE,NULL
MACRO CONCEPT LLC,3337 Frederick Ave Baltimore MD 21229,39.280624000000003,-76.673063999999997,"541990",SIMS,QUENTIN,ERIC
"VICTORY OUTREACH BALTIMORE, MD. INC.",2117 W Fairmount Ave Baltimore MD 21223,39.288597000000003,-76.650322000000003,"621111",MAGANA,NATHAN,CARMELO
PRECISION CONTRACTING & DEVELOPING INC,859 McKean Ave Baltimore MD 21217,39.298293999999999,-76.646563999999998,"236115",THOMPSON,CARRIE,THELMA
SARAH M. ROACH ELEMENTARY SCHOOL,3492 Old Frederick Rd Baltimore MD 21229,39.282797000000002,-76.675077000000002,"611110",KIM,EUSEBIA,PAMELA
"NCO FINANCIAL SYSTEMS, INC",1044 S Monroe St Baltimore MD 21230,39.275877000000001,-76.644113000000004,"561440",ROATH,GEORGIE,NULL
THE LONGWOOD,420 S Longwood St Baltimore MD 21223,39.279834999999999,-76.666685000000001,"722410",MANIS,SANDY,ALESHIA
TRANSFORMATION BAPTIST CHURCH,1632 W Lanvale St Baltimore MD 21217 USA,39.297845000000002,-76.643991999999997,"813110",OPPERMAN,JEFFERY,BLAKE
FAMOUS PAWNBROKERS 48,214 Goldsmith St Baltimore MD 21223,39.284717000000001,-76.647722999999999,"522298",ANDERSON,TYRELL,NULL
J.K.M INC.,101 S Payson St Baltimore MD 21223,39.285984999999997,-76.648236999999995,"999990",JOHNSON,JANE,NULL
BRANDSONS CARPET & UPHOLSTRY CLEANING,762 Mt Holly St Baltimore MD 21229,39.296059000000000,-76.680125000000004,"811420",GIBSON,EDNA,VANESSA
"TRINITY FAMILY LIFE CENTER, INC.",944 Chief St Baltimore MD 21216,39.298963999999998,-76.654413000000005,"561499",GRONBERG,MARY,NULL
SAMUEL JONES,63 S Franklintown Rd Baltimore MD 21223,39.287250999999998,-76.658496000000000,"484110",ARNOLD,GERALD,NULL
GRANDMA'S CANDLE SHOP,2229 W Saratoga St Baltimore MD 21223 USA,39.291632999999997,-76.652632999999994,"453998",CARTAGENA,PETER,JOHNATHAN
"EASE PAINTING AND CONSTRUCTION, INC.",1504 W Lafayette Ave Baltimore MD 21217,39.299041000000003,-76.641931999999997,"238320",DARLING,DIANA,NULL
CHURCH LADII,74 N Culver St Baltimore MD 21229,39.287410999999999,-76.676142999999996,"813110",KING,CARRIE,DOROTHY
HOLLINS STREET ASSOCIATES LIMITED PARTNERSHIP,2574 Hollins St Baltimore MD 21223,39.286884000000001,-76.657892000000004,"531110",WETTER,JULIO,NULL
"DAVIS, CORRIS P.A.",2235 W Lexington St Baltimore MD 21223,39.290202999999998,-76.652086999999995,"541219",VANSKIVER,CHARLES,PAUL
OPERATION REACHOUT SOUTHWEST I,24 N Fulton Ave Baltimore MD 21223 USA,39.288874000000000,-76.645550999999998,"999990",FOY,KRYSTAL,SARAH
G.HILL ELECTRICAL SERVICES,3855 W Franklin St Baltimore MD 21229,39.292220999999998,-76.680080000000004,"541990",IMIG,RAY,RICHARD
D2D LOGISTICS INC.,2555 W Lafayette Ave Baltimore MD 21216,39.298130000000000,-76.658366000000001,"488991",BELL,GARY,NULL
UNSELD'S DEVELOPMENT CENTER FOR CHILDREN INC,3346 Frederick Ave Baltimore MD 21229,39.281281000000000,-76.673158000000001,"624410",JENSEN,SHANE,ROGER
AARON'S TERMITE AND PEST CONTROL INC.,21 N Rosedale St Baltimore MD 21229,39.286197000000001,-76.668796000000000,"561710",DRIER,DONNETTE,LENORE
EVERGREEN AME CHURCH,3356 Old Frederick Rd Baltimore MD 21229,39.282001999999999,-76.673147999999998,"813110",FRAZIER,YVONNE,RHONDA
DAILY CASH EASY,232 N Monastery Ave Baltimore MD 21229,39.289637999999997,-76.674591000000007,"511110",WIECZOREK,TRAVIS,WILLIAM
DESTINI BEAUTY SALON,2510 Hollins St Baltimore MD 21223,39.286864999999999,-76.656328000000002,"812112",SYKORA,KEITH,NULL
NETTA'S CREATIONS,2030 Frederick Ave Baltimore MD 21223,39.286110999999998,-76.649360999999999,"448150",HAGER,DORTHY,NULL
KIMBERLY MUSSER DESIGN CONSULTING,2623 Wilkens Ave Baltimore MD 21223,39.278531999999998,-76.656533999999994,"541618",HULICK,FELIX,VICTOR
"NEXT CHANCE PROPERTIES, INCORPORATED",227 Mt Holly St Baltimore MD 21229,39.290199999999999,-76.679185000000004,"531312",WESTGATE,DOMENICA,LAURA
JFS HOME REFINING,2574 Frederick Ave Baltimore MD 21223,39.282860999999997,-76.657050999999996,"999990",WEISMAN,JOHN,NULL
TIFFANY'S BEAUTY SUPPLY,2328 W Lexington St Baltimore MD 21223 USA,39.290523999999998,-76.653896000000003,"452990",DOO,LUIS,NULL
CUT RITE,2329 W Lexington St Baltimore MD 21223 USA,39.290121999999997,-76.653873000000004,"812112",JOHNSON,OMEGA,NULL
LEE'S MINI MARKET,1802 Edmondson Ave Baltimore MD 21223,39.295312000000003,-76.645876999999999,"445120",WANG,NELSON,DYLAN
SANDHU PREETINDER S M D,1978 W Fairmount Ave Baltimore MD 21223,39.288915000000003,-76.648512999999994,"621111",PERNA,MICHAEL,WILLIAM
CHRIS MONROE,2915 Frederick Ave Baltimore MD 21223,39.279505000000000,-76.664680000000004,"999990",SMITH,KEVIN,TONY
BMOREHOMES LLC,962 Whitmore Ave Baltimore MD 21216,39.299045000000000,-76.658328999999995,"999990",RENAULT,ALFRED,NULL
BEN GROVE,321 S Bruce St Baltimore MD 21223,39.284101000000000,-76.643992999999995,"238130",LOWE,PATRICIA,LAURINDA
UNDER PRESSURE POWERWASHING,208 N Payson St Baltimore MD 21223,39.290683999999999,-76.649033000000003,"561990",FELICIANO,EMILY,OPAL
RYDER SYSTEM INC,914 S Brunswick St Baltimore MD 21223,39.277372000000000,-76.658756999999994,"532120",FARLEY,REGINALD,CURTIS
STAR MOON CORPORATION,2454 W Baltimore St Baltimore MD 21223,39.287911999999999,-76.656181000000004,"999990",OLGUIN,MICHAEL,NULL
KIM'S LIQUORS & GROCERY,222 N Monastery Ave Baltimore MD 21229,39.289552000000000,-76.674700999999999,"445310",EASTERLING,BETTY,NULL
SANCTUARY CHURCH,806 N Fulton Ave Baltimore MD 21217 USA,39.297877000000000,-76.645983999999999,"813110",DUKE,EDWARDO,NULL
URBAN DEVELOPMENT & CONTRACTING G,2338 Harlem Ave Baltimore MD 21216,39.296494000000003,-76.653929000000005,"238990",RAMOS,ELEANOR,ROSE
KERN'S CONFECTIONARY,300 S Monroe St Baltimore MD 21223 USA,39.284117999999999,-76.646936999999994,"445292",JEROME,BRUCE,NULL
MANAGEMENT PROSPERI,1940 W Fayette St Baltimore MD 21223,39.289619999999999,-76.647706999999997,"561110",MEDINA,LORA,NULL
SEE N TRY CHANT N TELL DAY CARE,944 Chief St Baltimore MD 21216,39.298963999999998,-76.654413000000005,"624190",WEINMAN,BARBARA,NULL
"KIRAN VORA BENEFITS AGENCY, LLC",649 S Smallwood St Baltimore MD 21223,39.279764999999998,-76.649491999999995,"999990",MINTER,ERYN,NULL
MCKOY'S BARBER SHOP,583 Allendale St Baltimore MD 21229,39.293650000000000,-76.678196999999997,"812111",SIMS,ROBERT,ALBERT
SPEED MART LLC,2023 Lemmon St Baltimore MD 21223,39.285480999999997,-76.648668999999998,"999990",RYAN,DEBBIE,NULL
DIRECT EXPRESS INC,2683 St Benedict St Baltimore MD 21223,39.278663000000002,-76.658379999999994,"484110",BURK,JAMES,RAY
LADY B TOURS,911 N Franklintown Rd Baltimore MD 21216,39.298287999999999,-76.666944999999998,"561520",ZINGARO,THERESA,NULL
SENSIBLE CONSULTANTS,344 S Mount St Baltimore MD 21223,39.283842999999997,-76.643737000000002,"493120",CAREY,TIMOTHY,NULL
H & G TAG N TITLE LLC,3615 Edmondson Ave Baltimore MD 21229,39.293686000000001,-76.677368999999999,"999990",BALIS,LORETTA,FRANCIS
CORONA GARCIA LLP,271 S Fulton Ave Baltimore MD 21223,39.284478000000000,-76.644768999999997,"722511",GARCIA,ALICE,IVA
STARVIN MARVIN'S BAIL BONDS INC,173 Goldsmith St Baltimore MD 21223,39.285294000000000,-76.647411000000005,"541990",HOWE,KEVIN,BLAKE
STADHAM CORPORATION OF MARYLAND,3201-3235 MD-144 Baltimore MD 21229,39.280456000000001,-76.670001999999997,"423850",TURNER,VALERIE,DOLORES
YOUTH OPPORTUNITY MIDDLE SCHOOL,962 N Parrish St Baltimore MD 21217,39.299596999999999,-76.642413000000005,"611110",WEISER,JENNIFER,NULL
BLUECRAFT MEDIA INC.,1668 Hollins St Baltimore MD 21223,39.287585000000000,-76.643310999999997,"518210",MUNOZ,GEORGE,DAVID
WILKENS AVE DENTAL,1962 Wilkens Ave Baltimore MD 21223,39.282041000000000,-76.647414999999995,"621210",LANE,MAURICE,MARK
PELICAN BAY SPORTS LOUNGE,427 S Payson St Baltimore MD 21223 USA,39.282252999999997,-76.647898999999995,"722410",HYERS,STEVE,NULL
"NEW FAYETTE STREET MARKET AND DELI, INC.",1984 W Fayette St Baltimore MD 21223,39.289597000000001,-76.648501999999993,"445110",SCHWARZ,TIEN,MARYLOU
KENNY K ENTERTAINMENT LLC,935 Mt Holly St Baltimore MD 21229,39.298208000000002,-76.679670999999999,"711510",SCADDEN,ALBERT,AARON
PREMIUM LINEN,2617 W Lexington St Baltimore MD 21223,39.289279999999998,-76.658615999999995,"424310",WALDO,JAMES,NULL
AMY BASTIAN,1950 W Lanvale St Baltimore MD 21217,39.297699000000001,-76.649045999999998,"813920",RIVERA,DANIEL,DAVID
PEOPLES CHURCH OF BALTIMORE BAPTIST INC,226 N Fulton Ave Baltimore MD 21223,39.291229000000001,-76.645612000000000,"813110",HARRIS,STUART,GREGORY
CENTRAL IRENE,652 N Pulaski St Baltimore MD 21217,39.295664000000002,-76.650683000000001,"999990",DENEEN,KAREN,COURTNEY
"EMMINIZER ENTERPRISES, INC",3120 Frederick Ave Baltimore MD 21229 USA,39.281514000000001,-76.669291000000001,"236115",BRYANT,GLORIA,NULL
PAUL KUNZE,3356 Dulany St Baltimore MD 21229,39.274678999999999,-76.674570000000003,"531110",LACOURSE,BARBARA,MELINDA
AMERICAN AUTO BARN LTD,2579 Edmondson Ave Baltimore MD 21223,39.294403000000003,-76.658782000000002,"811111",WEEKS,MAMIE,MARILYN
PATRICIA GROSS,3046 Edmondson Ave Baltimore MD 21223,39.294538000000003,-76.668141000000006,"812112",FIORI,KATHERINE,NULL
SAINT AMBROSE HOUSING AID CENTER,29 N Fulton Ave Baltimore MD 21223,39.288986000000001,-76.645007000000007,"446199",CLIFFORD,ROY,RUBEN
FIRST ABYSSINIA BAPTIST CHURCH,2512 Arunah Ave Baltimore MD 21216,39.295676999999998,-76.656762999999998,"813110",MENDEZ,SABINE,SYLVIA
WC PAINTER LLC,705 Wheeler Ave Baltimore MD 21216,39.295749000000001,-76.654680999999997,"238320",ELLINGSWORTH,EDWARD,LEONARD
"COMMUNITY BRIDGE, LLC",251 N Warwick Ave Baltimore MD 21223,39.290975000000003,-76.655636000000001,"561210",APPERSON,JOANN,CARRIE
"2 GETHER AS 1 ASSISTED LIVING, INC.",2934 Arunah Ave Baltimore MD 21216 USA,39.295361999999997,-76.666095999999996,"623110",TURVEY,CARLEY,LOUISE
WILLIE PINKEY,420 N Hilton St Baltimore MD 21229,39.292076000000002,-76.672937000000005,"561990",LUSK,BRENDA,ANGELA
NEW PRAYER MISSION CHURCH OF GOD IN CHRIST INC,101-137 S Caton Ave Baltimore MD 21229,39.284585000000000,-76.672824000000006,"813110",SAENZ,KAREN,NULL
ANCHOR OF CHANGE,777 Wheeler Ave Baltimore MD 21216,39.296799000000000,-76.654651000000001,"721310",CASADOS,HENRY,NULL
SANDRA ANN JACKSON,1835 W Lanvale St Baltimore MD 21217,39.297406000000002,-76.646835999999993,"999990",LIPSCOMB,BEN,NULL
FSAI,1717 Frederick Ave Baltimore MD 21223,39.287635999999999,-76.643908999999994,"624190",CHIEM,CAROLYN,MARYANN
PATTYS BAR,2185 McHenry St Baltimore MD 21223,39.283932999999998,-76.651032999999998,"722410",CANTRELL,PATSY,NULL
EASTERN SHORE,258 N Hilton St Baltimore MD 21229,39.290069000000003,-76.672802000000004,"999990",ROSS,HELEN,NULL
THE OLIVET BAPTIST CHURCH OF BALTIMORE MARYLAND,608 Edgewood St Baltimore MD 21229,39.294580000000003,-76.675805999999994,"813110",VERNON,RAYMOND,RANDELL
TALLEY INTERIOR PAINTING,243 Edgewood St Baltimore MD 21229,39.290438000000002,-76.675624999999997,"238320",ROJAS,CLINTON,CRUZ
